icao,name,latitude,longitude,city,iata,province
KLGA,La Guardia Airport,40.77719879,-73.87259674,New York,LGA,New York
KDCA,Ronald Reagan Washington National Airport,38.8521,-77.037697,Washington DC,DCA,Washington DC
CAA8,Invermere Airport,50.5167007446,-116,Invermere,,British Columbia
CAD4,Trail Airport,49.0555992126,-117.60900116,Trail,YZZ,British Columbia
CAD5,Merritt Airport,50.1227989197,-120.7470016479,Merritt,,British Columbia
CAE4,Tsacha Lake Airport,53.0167007446,-124.8330001831,Tsacha Lake,,British Columbia
CAF4,Tsuniah Lake Lodge Airport,51.5332984924,-124.1669998169,Tsuniah Lake Lodge,,British Columbia
CAG3,Chilko Lake (Tsylos Park Lodge) Airport,51.6260986328,-124.141998291,Chilko Lake,,British Columbia
CAH3,Courtenay Airpark,49.6794013977,-124.9820022583,Courtenay,,British Columbia
CAH4,Valemount Airport,52.8532981873,-119.3339996338,Valemount,,British Columbia
CAJ2,Wiley Airport,66.4910964966,-136.5729980469,Eagle Plains,,Yukon
CAJ3,Art Sutcliffe Field,49.0368995667,-116.4980010986,Creston,,British Columbia
CAJ4,Anahim Lake Airport,52.4524993896,-125.3030014038,Anahim Lake,YAA,British Columbia
CAJ7,Cayley A J Flying Ranch Airport,50.4500007629,-113.75,Cayley,,Alberta
CAJ9,Fort Ware Airport,57.4272003174,-125.6500015259,Fort Ware,,British Columbia
CAM4,Alhambra / Ahlstrom,52.3461940388,-114.667525291,,,Alberta
CAM5,Houston Airport,54.4392009821,-126.778879166,Houston,,British Columbia
CAP3,Sechelt-Gibsons Airport,49.4606018066,-123.71900177,Sechelt-Gibsons,,British Columbia
CAP6,Ingenika Airport,56.790599823,-124.8970031738,Ingenika,,British Columbia
CAQ4,Springhouse Airpark,51.9556007385,-122.138999939,Springhouse,,British Columbia
CAQ5,Nakusp Airport,50.2663993835,-117.81300354,Nakusp,,British Columbia
CAR2,Crawford Bay Airport,49.6666984558,-116.8170013428,Crawford Bay,,British Columbia
CAS2,Moose Lake (Lodge) Airport,53.073299408,-125.408996582,Moose Lake,,British Columbia
CAS3,Barkerville Airport,53.0881004333,-121.5149993896,Barkerville,,British Columbia
CAT4,Qualicum Beach Airport,49.3372001648,-124.3939971924,Qualicum Beach,,British Columbia
CAT5,Port Mcneill Airport,50.5755996704,-127.0289993286,Port Mcneill,,British Columbia
CAU3,Oliver Airport,49.1733016968,-119.5510025024,Oliver,,British Columbia
CAU4,Vanderhoof Airport,54.0461006165,-124.0120010376,Vanderhoof,,British Columbia
CAV3,One Hundred Mile House Airport,51.6425018311,-121.3069992065,One Hundred Mile House,,British Columbia
CAV4,Mcbride Airport,53.3149986267,-120.1709976196,Mcbride,,British Columbia
CAW3,Scum Lake Airport,51.7999992371,-123.5830001831,Scum Lake,,British Columbia
CAX2,Axe Lake,57.2691650391,-109.8475036621,,,Saskatchewan
CAX5,Likely Airport,52.6166992188,-121.5,Likely,,British Columbia
CAY2,Gang Ranch Airport,51.551700592,-122.327003479,Gang Ranch,,British Columbia
CAZ5,Cache Creek-Ashcroft Regional Airport,50.7751091109,-121.321227551,Cache Creek,,British Columbia
CBA8,Beaverley Airport,53.8555984497,-122.9079971313,Beaverley,,British Columbia
CBA9,Ospika Airport,56.2750015259,-124.0520019531,Ospika,,British Columbia
CBB7,Tipella Airport,49.7430992126,-122.1630020142,Tipella,,British Columbia
CBB9,Osoyoos Airport,49.0372009277,-119.488998413,Osoyoos,,British Columbia
CBBC,Bella Bella (Campbell Island) Airport,52.1850013733,-128.1569976807,Bella Bella,ZEL,British Columbia
CBC2,Ford Bay Airport,66.0374984741,-124.7149963379,Ford Bay,,Northwest Territories
CBD6,Nahanni Butte Airport,61.0297012329,-123.388999939,Nahanni Butte,,Northwest Territories
CBE2,Elko Airport,49.2832984924,-115.1500015259,Elko,,British Columbia
CBF9,Mabel Lake Airport,50.6088981628,-118.7310028076,Mabel Lake,,British Columbia
CBG2,Green Lake Airport,51.4294013977,-121.2099990845,Green Lake,,British Columbia
CBH2,Helmet Airport,59.4258003235,-120.797996521,Helmet,,British Columbia
CBH4,Prairie Creek Airport,61.5647010803,-124.8150024414,Prairie Creek,,Northwest Territories
CBJ4,Echo Valley Airport,51.2416992188,-121.9940032959,Echo Valley,,British Columbia
CBK6,Quesnel Lake Airport,52.5149993896,-121.0449981689,Quesnel Lake,,British Columbia
CBK7,Mile 422 (Alaska Highway) Airport,58.8493995667,-125.2399978638,Toad River,,British Columbia
CBL3,Gordon Field,58.8166999817,-122.7829971313,Fort Nelson,,British Columbia
CBL6,Radium Hot Springs Airport,50.6333007813,-116.0999984741,Radium Hot Springs,,British Columbia
CBL9,Elkin Creek Guest Ranch Airport,51.5127983093,-123.8040008545,Elkin Creek,,British Columbia
CBM5,Telegraph Creek Airport,57.9166984558,-131.1170043945,Telegraph Creek,,British Columbia
CBM6,Midway Airport,49.0099983215,-118.7900009155,Midway,,British Columbia
CBN9,Tsay Keh Airport,56.9061012268,-124.9649963379,Tsay Keh,,British Columbia
CBQ7,Kemess Creek Airport,56.9743995667,-126.7409973145,Kemess Creek,,British Columbia
CBQ8,Woodcock Airport,55.0666999817,-128.233001709,Woodcock,,British Columbia
CBR2,Kaslo Airport,49.9035987854,-116.9349975586,Kaslo,,British Columbia
CBR4,Clinton / Bleibler Ranch,51.2668021597,-121.685771942,Clinton,,British Columbia
CBS4,Mule Creek Airport,59.7855987549,-136.5829925537,Mule Creek,,British Columbia
CBS8,Port Alberni Airport,49.3218994141,-124.9309997559,Port Alberni,,British Columbia
CBT3,Tsetzi Lake (Pan Phillips) Airport,52.9719009399,-125.0270004272,Tsetzi Lake,,British Columbia
CBT6,Quilchena Airport,50.1618895996,-120.507745743,Quilchena,,British Columbia
CBU2,Eddontenajon / Iskut Village Airport,57.847994155,-129.983968735,Eddontenajon,,British Columbia
CBW2,Kitimat Airport,54.163898468,-128.5809936523,Kitimat,,British Columbia
CBW3,Fort Grahame Airport,56.5213877877,-124.470291138,Fort Graham,,British Columbia
CBW4,Bob Quinn Lake Airport,56.9667015076,-130.25,Bob Quinn Lake,,British Columbia
CBW8,Prince George (North Cariboo Air Park) Airport,54.0080986023,-123.0230026245,Prince George,,British Columbia
CBX5,Tungsten (Cantung) Airport,61.9569015503,-128.2030029297,Tungsten,,Northwest Territories
CBX7,Tumbler Ridge Airport,55.0250015259,-120.9349975586,Tumbler Ridge,,British Columbia
CBZ9,Fraser Lake Airport,54.0133018494,-124.7679977417,Fraser Lake,,British Columbia
CCA6,Williams Harbour Airport,52.5668983459,-55.7846984863,Williams Harbour,YWM,Newfoundland and Labrador
CCC2,Winterland Airport,47.1369018555,-55.3292007446,Winterland,,Newfoundland and Labrador
CCD2,Springdale Airport,49.4789009094,-56.1781005859,Springdale,,Newfoundland and Labrador
CCD3,Woodstock Airport,46.1522484697,-67.5452327728,Woodstock,,New Brunswick
CCD4,Postville Airport,54.9105987549,-59.7867012024,Postville,,Newfoundland and Labrador
CCE2,Mount Pleasant Airport,46.5999984741,-64,Mount Pleasant,,Prince Edward Island
CCE3,Juniper Airport,46.5628013611,-67.168296814,Juniper,,New Brunswick
CCE4,Black Tickle Airport,53.4693984985,-55.7849998474,Black Tickle,,Newfoundland and Labrador
CCF9,Scottsfield Airpark,45.9603004456,-67.0952987671,Scottsfield,,New Brunswick
CCG3,Weyman Airpark,46.0374984741,-66.8589019775,Burtt's Corner,,New Brunswick
CCH2,Upper Kent Airport,46.587137287,-67.7195549011,,,Maine
CCH4,Charlottetown Airport,52.7649993896,-56.1156005859,Charlottetown,,Newfoundland and Labrador
CCI9,Cortes Island (Hansen Airfield) Airport,50.0203018188,-124.9840011597,Cortes Island,,British Columbia
CCJ3,Boston Brook Airport,47.448600769,-67.6247024536,Boston Brook,,New Brunswick
CCK3,Grand Falls Airport,47.0750007629,-67.6849975586,Grand Falls,,New Brunswick
CCK4,St. Lewis (Fox Harbour) Airport,52.3727989197,-55.6739006042,St. Lewis,YFX,Newfoundland and Labrador
CCK5,Owen Sound (Cook Field),44.6449639588,-80.7456064224,Owen Sound,,Ontario
CCL2,Candle Lake Airpark,53.7682991028,-105.3079986572,Candle Lake,,Saskatchewan
CCL3,Christina Lake,55.6283836075,-110.751113892,,,Alberta
CCM3,Sevogle Airport,47.1910552979,-66.1606140137,Sevogle,,New Brunswick
CCM4,Port Au Choix Airport,50.6888999939,-57.331401825,Port Au Choix,,Newfoundland and Labrador
CCN2,Grand Manan Airport,44.7132987976,-66.7964019775,Grand Manan,,New Brunswick
CCP2,Exploits Valley Botwood Airport,49.0559997559,-55.4477005005,Exploits Valley,,Newfoundland and Labrador
CCP3,Chute-St-Philippe Airport,46.6610984802,-75.2450027466,Chute-St-Philippe,,Quebec
CCP4,Port Hope Simpson Airport,52.5280990601,-56.2860984802,Port Hope Simpson,YHA,Newfoundland and Labrador
CCP6,Caniapiscau Airport,54.8377990723,-69.8927993774,Caniapiscau,,Quebec
CCR3,Florenceville Airport,46.4261016846,-67.6280975342,Florenceville,,New Brunswick
CCS3,St. Stephen Airport,45.2075004578,-67.2506027222,St. Stephen,,New Brunswick
CCS4,Chipman Airport,46.148601532,-65.9041976929,Chipman,,New Brunswick
CCS6,Courtenay (Smit Field) Airport,49.6824989319,-125.1009979248,Courtenay,,British Columbia
CCW3,Waterville / Kings County Municipal Airport,45.0518989563,-64.6517028809,Waterville,,Nova Scotia
CCX3,Brockway Airport,45.5666999817,-67.0999984741,Brockway,,New Brunswick
CCY3,Sussex Airport,45.6899986267,-65.5400009155,Sussex,,New Brunswick
CCZ2,Rigolet Airport,54.1796989441,-58.4575004578,Rigolet,YRG,Newfoundland and Labrador
CCZ3,Clarenville Airport,48.2747001648,-53.9239006042,Clarenville,,Newfoundland and Labrador
CCZ4,Margaree Airport,46.3410987854,-60.9796981812,Margaree,,Nova Scotia
CCZ5,Thorburn Airport,45.5606002808,-62.5946998596,Thorburn,,Nova Scotia
CDA4,Pokemouche Airport,47.7164001465,-64.8824996948,Pokemouche,,New Brunswick
CDA5,St. Andrews Codroy Valley Airport,47.773601532,-59.3130989075,St. Andrews,,Newfoundland and Labrador
CDA6,Bristol Airport,46.459400177,-67.5646972656,Bristol,,New Brunswick
CDC3,Dawson Creek (Flying L Ranch) Airport,55.8194885254,-120.4602813721,Dawson Creek,,British Columbia
CDC4,St-Quentin Airport,47.5210990906,-67.4210968018,St-Quentin,,New Brunswick
CDF3,Englehart (Dave's Field),47.809722223,-79.8111111111,Englehart,,Ontario
CDG3,Dungannon,43.836389,-81.606667,,,Ontario
CDH1,Deerhurst Resort Airport,45.3541984558,-79.1513977051,Huntsville,,Ontario
CDH3,Finlay Air Park,43.9622001648,-65.9942016602,Finlay,,Nova Scotia
CDJ4,Clearwater Airport,46.7132987976,-66.8283004761,Clearwater,,New Brunswick
CDK2,Diavik Airport,64.5113983154,-110.289001465,Diavik,DVK,Northwest Territories
CDO2,Ostergard's Airport,51.2943992615,-112.6139984131,Drumheller,,Alberta
CDU6,Doaktown Airport,46.5525016785,-66.0939025879,Doaktown,,New Brunswick
CDV2,Downs Gulch Airport,47.7536010742,-67.4261016846,Downs Gulch,,New Brunswick
CDW2,Baddeck (Crown Jewel) Airport,46.1650009155,-60.7839012146,Baddeck,,Nova Scotia
CDY3,Fogo Airport,49.6575012207,-54.2374992371,Fogo,,Newfoundland and Labrador
CDY6,Bridgewater / Dayspring Airpark,44.3819007874,-64.456703186,Bridgewater,,Nova Scotia
CEA5,Hardisty Airport,52.646900177,-111.3840026855,Hardisty,,Alberta
CEA6,Cardston Airport,49.1624984741,-113.2409973145,Cardston,,Alberta
CEB3,Colville Lake Airport,67.0333023071,-126.0830001831,Colville Lake,YCK,Northwest Territories
CEB5,Fairview Airport,56.081401825,-118.4349975586,Fairview,,Alberta
CEC3,Fox Lake Airport,58.4733009338,-114.5429992676,Fox Lake,,Alberta
CEC4,Hinton / Jasper-Hinton Airport,53.3191986084,-117.752998352,Hinton,,Alberta
CED3,Oyen Municipal Airport,51.3342018127,-110.4909973145,Oyen,,Alberta
CED4,Fox Creek Airport,54.3800010681,-116.7659988403,Fox Creek,,Alberta
CED5,Taber Airport,49.8266983032,-112.1849975586,Taber,,Alberta
CEE4,Hinton / Entrance Airport,53.381401062,-117.700996399,Hinton,,Alberta
CEE5,Wabasca Airport,55.9618988037,-113.819000244,Wabasca,,Alberta
CEE8,Viking Airport,53.1089685346,-111.864938736,Viking,,Alberta
CEF3,Bow Island Airport,49.8833007813,-111.3330001831,Bow Island,,Alberta
CEF6,Forestburg Airport,52.5746994019,-112.0839996338,Forestburg,,Alberta
CEG3,Lacombe Airport,52.4883003235,-113.7119979858,Lacombe,,Alberta
CEG4,Drumheller Municipal Airport,51.4963989258,-112.7490005493,Drumheller,,Alberta
CEG5,Chipewyan Lake Airport,56.9524993896,-113.4960021973,Chipewyan Lake,,Alberta
CEG8,North Seal River Airport,58.9693984985,-99.9749984741,North Seal River,,Manitoba
CEH5,Red Earth Creek Airport,56.5463981628,-115.2740020752,Red Earth Creek,,Alberta
CEH6,Provost Airport,52.3381004333,-110.2789993286,Provost,,Alberta
CEJ3,Stettler Airport,52.3100013733,-112.7539978027,Stettler,,Alberta
CEJ4,Claresholm Industrial Airport,50.004699707,-113.6299972534,Claresholm,,Alberta
CEJ6,Elk Point Airport,53.8931007385,-110.7720031738,Elk Point,,Alberta
CEK2,Braeburn Airport,61.4844017029,-135.7760009766,Braeburn,,Yukon
CEK6,Killam-Sedgewick Airport,52.7999992371,-111.766998291,Killam,,Alberta
CEL3,East Linton (Kerr Field),44.6610679784,-80.9440255165,,,Ontario
CEL4,Hanna Airport,51.631401062,-111.9039993286,Hanna,,Alberta
CEL5,Valleyview Airport,55.0325012207,-117.2959976196,Valleyview,,Alberta
CEL6,Two Hills Airport,53.7000007629,-111.7829971313,Two Hills,,Alberta
CEL8,Eleonore,52.718306623,-76.0798072815,,,Quebec
CEM3,Whati Airport,63.1316986084,-117.2460021973,Whati,YLE,Northwest Territories
CEM4,Innisfail Airport,52.0786018372,-114.0270004272,Innisfail,,Alberta
CEM5,Swan Hills Airport,54.6707992554,-115.4150009155,Swan Hills,,Alberta
CEN2,Bassano Airport,50.7999992371,-112.4670028687,Bassano,,Alberta
CEN3,Three Hills Airport,51.6967010498,-113.2089996338,Three Hills,,Alberta
CEN5,Cold Lake Regional Airport,54.4775009155,-110.2689971924,Cold Lake,,Alberta
CEN6,Vauxhall Airport,50.0332984924,-112.0830001831,Vauxhall,,Alberta
CEP3,Barrhead Airport,54.0999984741,-114.4329986572,Barrhead,,Alberta
CEP4,Ross International Airport,49,-111.9670028687,Coutts,,Montana
CEP5,Janvier Airport,55.9000015259,-110.733001709,Janvier,,Alberta
CEP6,Warner Airport,49.2933006287,-112.1890029907,Warner,,Alberta
CEQ4,Del Bonita / Whetstone International Airport,48.9986000061,-112.776000977,Del Bonita,,Montana
CEQ5,Grande Cache Airport,53.9169006348,-118.8740005493,Grande Cache,,Alberta
CER2,Castor Airport,52.2209249248,-111.926887035,Castor,,Alberta
CER3,Drayton Valley Industrial Airport,53.2658004761,-114.9599990845,Drayton Valley,,Alberta
CES4,Westlock Airport,54.14220047,-113.7409973145,Westlock,,Alberta
CET2,Conklin (Leismer) Airport,55.6953010559,-111.2789993286,Conklin,,Alberta
CET4,Fort Simpson Island Airport,61.8666992188,-121.3659973145,Fort Simpson Island,,Northwest Territories
CET9,Jean Marie River Airport,61.5167007446,-120.6169967651,Jean Marie River,,Northwest Territories
CEU2,Beaverlodge Airport,55.1842002869,-119.4479980469,Beaverlodge,,Alberta
CEU9,Trout Lake Airport,60.4393997192,-121.2369995117,Trout Lake,,Northwest Territories
CEV2,Edra Airport,57.8499984741,-113.25,Edra,,Alberta
CEV3,Vegreville Airport,53.5144004822,-112.0270004272,Vegreville,,Alberta
CEV5,Mayerthorpe Airport,53.9375,-115.1790008545,Mayerthorpe,,Alberta
CEV9,Snare River Airport,63.4333000183,-116.1829986572,Snare River,,Northwest Territories
CEW3,St. Paul Airport,53.9933013916,-111.379997253,St. Paul,ZSP,Alberta
CEW5,Milk River Airport,49.1333007813,-112.0500030518,Milk River,,Alberta
CEX4,Carmacks Airport,62.1081008911,-136.1799926758,Carmacks,,Yukon
CEX9,Brant (Dixon Farm) Airport,50.4193992615,-113.5410003662,Brant,,Alberta
CEY3,Fort Macleod Airport,49.7000007629,-113.4169998169,Fort Macleod,,Alberta
CEZ2,Chapman Lake Airport,64.9000015259,-138.266998291,Chapman Lake,,Yukon
CEZ4,Fort Vermilion Airport,58.4042015076,-115.9509963989,Fort Vermilion,,Alberta
CFA4,Carcross Airport,60.1741981506,-134.6979980469,Carcross,,Yukon
CFA7,Taltheilei Narrows Airport,62.5980987549,-111.5429992676,Taltheilei Narrows,,Northwest Territories
CFB3,Hespero Airport,52.2999992371,-114.4639968872,Hespero,,Alberta
CFB4,Trout Lake Airport,56.5,-114.5500030518,Trout Lake,,Alberta
CFB5,Namur Lake Airport,57.3833007813,-112.8000030518,Namur Lake,,Alberta
CFB7,Steen River Airport,59.6333007813,-117.1669998169,Steen River,,Alberta
CFC4,Macmillan Pass Airport,63.181098938,-130.2019958496,Macmillan Pass,,Yukon
CFC7,Rimbey Airport,52.6819000244,-114.2379989624,Rimbey,,Alberta
CFD4,Foremost Airport,49.4831008911,-111.4940032959,Foremost,,Alberta
CFD5,Grimshaw Airport,56.19611,-117.625278,Grimshaw,,Alberta
CFF2,Christina Basin Airport,55.5900001526,-111.8229980469,Christina Basin,,Alberta
CFF3,Jean Lake Airport,57.4832992554,-113.8830032349,Jean Lake,,Alberta
CFF4,Great Bear Lake Airport,66.7031021118,-119.707000732,Great Bear Lake,DAS,Northwest Territories
CFG3,Consort Airport,52.0167007446,-110.75,Consort,,Alberta
CFG4,Debolt Airport,55.2332992554,-118.0329971313,Debolt,,Alberta
CFG5,John D'Or Prairie Airport,58.4914016724,-115.1380004883,John D'Or Prairie,,Alberta
CFG7,Steen Tower Airport,59.6333007813,-117.7829971313,Steen Tower,,Alberta
CFK2,Bashaw Airport,52.5574989319,-112.9649963379,Bashaw,,Alberta
CFK3,Fontas Airport,57.7999992371,-119.4499969482,Fontas,,Alberta
CFK4,Calling Lake Airport,55.3166999817,-113.25,Calling Lake,,Alberta
CFK6,Olds (Netook) Airport,51.8499984741,-114.0670013428,Olds,,Alberta
CFL2,Empress McNeill Spectra Energy Airport,50.6824989319,-110.041999817,Empress,,Alberta
CFL9,Johnson Lake Airport,57.5666999817,-110.3170013428,Johnson Lake,,Alberta
CFM2,Birch Mountain Airport,57.7000007629,-111.8330001831,Birch Mountain,,Alberta
CFM4,Donnelly Airport,55.709400177,-117.09400177,Donnelly,,Alberta
CFM5,Hamburg Airport,57.3552844682,-119.765310287,Apache,,Alberta
CFM6,Teepee Airport,56.459400177,-114.1190032959,Teepee,,Alberta
CFM7,Boyle Airport,54.573299408,-112.8199996948,Boyle,,Alberta
CFM8,Fort Macleod (Alcock Farm) Airport,49.5833015442,-113.3000030518,Fort Macleod,,Alberta
CFN5,La Crete Airport,58.1728751982,-116.337919235,La Crete,,Alberta
CFN7,Sundre Airport,51.7742004395,-114.6770019531,Sundre,,Alberta
CFP4,Mcquesten Airport,63.5999984741,-137.5670013428,Mcquesten,,Yukon
CFP5,Glendon Airport,54.2708015442,-111.0670013428,Glendon,,Alberta
CFP6,La Biche River Airport,60.1291999817,-124.0490036011,La Biche River,,Yukon
CFP7,Wainwright Field 21 Airport,52.8306007385,-111.100997925,Wainwright,,Alberta
CFP8,Whitehorse / Cousins Airport,60.8117343999,-135.182132721,Whitehorse,,Yukon
CFQ3,Milk River (Madge) Airport,49.1446990967,-112.0839996338,Milk River,,Alberta
CFQ5,Silver City Airport,61.0289001465,-138.4080047607,Silver City,,Yukon
CFQ6,Pelly Crossing Airport,62.8372001648,-136.5350036621,Pelly Crossing,,Yukon
CFR2,Bawlf (Blackwells) Airport,52.9000015259,-112.5500030518,Bawlf,,Alberta
CFR5,Alban Airport,46.0896987915,-80.6044006348,French River,,Ontario
CFR7,Red Deer Forestry Airport,51.6514015198,-115.2389984131,Red Deer Forestry,,Alberta
CFS4,Ogilvie River Airport,65.6667022705,-138.1170043945,Ogilvie River,,Yukon
CFS5,Spirit River Airport,55.7835998535,-118.8399963379,Spirit River,,Alberta
CFS6,Loon River Airport,57.1418991089,-115.0749969482,Loon River,,Alberta
CFS7,Twin Creeks Airport,62.6194000244,-131.279006958,Twin Creeks,,Yukon
CFS8,Clearwater River Airport,51.9880981445,-115.2279968262,Clearwater River,,Alberta
CFT3,Finlayson Lake Airport,61.6913986206,-130.774002075,Finlayson Lake,,Yukon
CFT5,Hyland Airport,61.5238990784,-128.2689971924,Hyland,,Yukon
CFT8,Pelican Airport,56.1608009338,-113.4739990234,Pelican,,Alberta
CFT9,Zama Lake Airport,59.0638999939,-118.8899993896,Zama Lake,,Alberta
CFU3,Chipman Airport,53.7167015076,-112.6330032349,Chipman,,Alberta
CFU4,Garden River Airport,58.7139015198,-113.8759994507,Garden River,,Alberta
CFU8,Irma Airport,52.9122009277,-111.1740036011,Irma,,Alberta
CFV3,Mobil Bistcho Airport,59.4747326918,-119.006137848,Mobil Bistcho,,Alberta
CFV6,Margaret Lake Airport,58.9458023034,-115.256538391,Margaret Lake,,Alberta
CFW5,Taltson River Airport,60.3833007813,-111.3499984741,Taltson River,,Northwest Territories
CFX3,Doig Airport,56.9500007629,-119.516998291,Doig,,Alberta
CFX4,Manning Airport,56.9508018494,-117.6439971924,Manning,,Alberta
CFX6,Vulcan Airport,50.4047012329,-113.2829971313,Vulcan,,Alberta
CFY2,Grist Lake Airport,55.4000015259,-110.483001709,Grist Lake,,Alberta
CFY5,Pine Lake,60.103099823,-130.9340057373,Pine Lake,,Yukon
CFZ3,Schlenker Airport,49.9667015076,-110.7170028687,Medicine Hat,,Alberta
CFZ5,Sundre / Goodwins Farm Airport,51.7398057147,-114.662600756,Sundre,,Alberta
CGK2,Gahcho Kue,63.4330558777,-109.19972229,,,Northwest Territories
CGL2,Harrow Airport,42.0593986511,-82.8407974243,Harrow,,Ontario
CGL4,Eaglesham (South) Airport,55.6711006165,-117.9359970093,Eaglesham,,Alberta
CGR3,George Lake Aerodrome,65.928056,-102.462222,,,Nunavut
CGS2,Goose Lake Aerodrome,65.552778,-106.433611,,,Nunavut
CHC5,Hayes Camp Aerodrome,66.655556,-91.545,,,Nunavut
CHM2,Spiritwood / H & M Fast Farms,53.275,-107.57027778,,,Saskatchewan
CHS3,Highgate (South),42.4736111111,-81.8219444444,,,Ontario
CJA3,Morden Airport,49.2103004456,-98.0591964722,Morden,,Manitoba
CJA5,Nestor Falls Airport,49.1403007507,-93.9169006348,Nestor Falls,,Ontario
CJA7,Arcola Airport,49.6333007813,-102.483001709,Arcola,,Saskatchewan
CJB5,Moosomin Airport,50.168598175,-101.6439971924,Moosomin,,Saskatchewan
CJB6,Gods Lake Airport,54.7792015076,-93.7169036865,Gods Lake,,Manitoba
CJB8,Kyle Airport,50.8333015442,-108.0699996948,Kyle,,Saskatchewan
CJC2,Craik Airport,51.056098938,-105.8379974365,Craik,,Saskatchewan
CJC3,Davidson Municipal Airport,51.2477989197,-105.9759979248,Davidson,,Saskatchewan
CJC4,Central Butte Airport,50.801399231,-106.4879989624,Central Butte,,Saskatchewan
CJC5,Shaunavon Airport,49.6581001282,-108.40599823,Shaunavon,,Saskatchewan
CJC6,Hafford Airport,52.7322006226,-107.3740005493,Hafford,,Saskatchewan
CJC8,Laurie River Airport,56.2486000061,-101.3040008545,Laurie River,,Manitoba
CJD2,Cudworth Municipal Airport,52.4832992554,-105.7170028687,Cudworth,,Saskatchewan
CJD3,Birch Hills Airport,52.9907989502,-105.4449996948,Birch Hills,,Saskatchewan
CJD5,Leader Airport,50.8772010803,-109.5009994507,Leader,,Saskatchewan
CJE2,Dore Lake Airport,54.6166992188,-107.3830032349,Dore Lake,,Saskatchewan
CJE3,Weyburn Airport,49.6974983215,-103.8010025024,Weyburn,,Saskatchewan
CJE4,Snow Lake Airport,54.8972015381,-99.818901062,Snow Lake,,Manitoba
CJE5,Glaslyn Airport,53.3772010803,-108.3420028687,Glaslyn,,Saskatchewan
CJE6,Paradise Hill Airport,53.5353012085,-109.4339981079,Paradise Hill,,Saskatchewan
CJE7,Ashern Airport,51.1585998535,-98.3319015503,Ashern,,Manitoba
CJF3,Ile-a-la-Crosse Airport,55.4897003174,-107.9300003052,Ile-a-la-Crosse,,Saskatchewan
CJF5,West Poplar Airport,49.0031013489,-106.3870010376,West Poplar,,Montana
CJF8,Biggar Airport,52.0511016846,-107.9879989624,Biggar,,Saskatchewan
CJG2,Eatonia (Elvie Smith) Municipal Airport,51.2188987732,-109.3929977417,Eatonia,,Saskatchewan
CJG4,Wrong Lake Airport,52.6154522074,-96.184015274,,,Manitoba
CJH2,Gilbert Plains Airport,51.1333007813,-100.5,Gilbert Plains,,Manitoba
CJH3,Maidstone Airport,53.0943984985,-109.3249969482,Maidstone,,Saskatchewan
CJH4,Ferland Airport,49.4449996948,-106.9319992065,Ferland,,Saskatchewan
CJH8,Leask Airport,53.0167007446,-106.75,Leask,,Saskatchewan
CJJ2,Glenboro Airport,49.5499992371,-99.3332977295,Glenboro,,Manitoba
CJJ3,Wildwood / Loche Mist Farms Airstrip,53.546529605,-115.260658264,,,Alberta
CJJ4,Deloraine Airport,49.1506004333,-100.5009994507,Deloraine,,Manitoba
CJJ5,Cabri Airport,50.6194000244,-108.466003418,Cabri,,Saskatchewan
CJJ8,Macklin Airport,52.3428001404,-109.9189987183,Macklin,,Saskatchewan
CJK2,Gunisao Lake Airport,53.5200004578,-96.3711013794,Gunisao Lake,,Manitoba
CJK3,Beauval Airport,55.1102981567,-107.716003418,Beauval,,Saskatchewan
CJK4,Esterhazy Airport,50.6427993774,-102.0999984741,Esterhazy,,Saskatchewan
CJK5,Gull Lake Airport,50.057800293,-108.4899978638,Gull Lake,,Saskatchewan
CJK9,Preeceville Airport,51.9500007629,-102.6500015259,Preeceville,,Saskatchewan
CJL2,Hatchet Lake Airport,58.6624984741,-103.5380020142,Hatchet Lake,,Saskatchewan
CJL4,La Loche Airport,56.4733009338,-109.4039993286,La Loche,,Saskatchewan
CJL6,Altona Municipal Airport,49.0943984985,-97.5338973999,Altona,,Manitoba
CJL8,Kasba Lake Airport,60.2919006348,-102.5019989014,Kasba Lake,,Northwest Territories
CJM2,Ituna Airport,51.1460990906,-103.4260025024,Ituna,,Saskatchewan
CJM4,Gravelbourg Airport,49.8662071228,-106.5710754395,Gravelbourg,,Saskatchewan
CJM5,Frontier Airport,49.1666984558,-108.5670013428,Frontier,,Saskatchewan
CJM6,Arborfield Airport,53.10779953,-103.6510009766,Arborfield,,Saskatchewan
CJN2,Kamsack Airport,51.5597000122,-101.8789978027,Kamsack,,Saskatchewan
CJN4,Assiniboia Airport,49.7346992493,-105.9469985962,Assiniboia,,Saskatchewan
CJP2,Kerrobert Airport,51.9268989563,-109.1289978027,Kerrobert,,Saskatchewan
CJP6,Camsell Portage Airport,59.6100006104,-109.266998291,Camsell Portage,,Saskatchewan
CJP7,Bird River (Lac Du Bonnet) Airport,50.3967018127,-95.7350006104,Bird River,,Manitoba
CJP9,Charlot River Airport,59.6016998291,-109.1370010376,Charlot River,,Saskatchewan
CJQ2,Lampman Airport,49.3666992188,-102.766998291,Lampman,,Saskatchewan
CJQ3,Carlyle Airport,49.6444015503,-102.2870025635,Carlyle,,Saskatchewan
CJQ4,Maple Creek Airport,49.8958015442,-109.4749984741,Maple Creek,,Saskatchewan
CJQ5,Arnes Airport,50.836101532,-96.9571990967,Arnes,,Manitoba
CJQ6,Tanquary Fiord Airport,81.4094009399,-76.8816986084,Tanquary Fiord,,Nunavut
CJQ9,Big Sand Lake Airport,57.6194000244,-99.8752975464,Big Sand Lake,,Manitoba
CJR2,Luseland Airport,52.0699996948,-109.3740005493,Luseland,,Saskatchewan
CJR3,The Pas / Grace Lake Airport,53.8264007568,-101.205001831,The Pas,,Manitoba
CJR4,Eston Airport,51.1441993713,-108.7630004883,Eston,,Saskatchewan
CJR5,Gladstone Airport,50.1636009216,-98.9424972534,Gladstone,,Manitoba
CJR7,Canora Airport,51.6288986206,-102.4499969482,Canora,,Saskatchewan
CJR8,Mccreary Airport,50.7647018433,-99.4966964722,Mccreary,,Manitoba
CJR9,Naicam Airport,52.4113998413,-104.4840011597,Naicam,,Saskatchewan
CJS2,Malcolm Island Airport,56.9494018555,-102.2389984131,Malcolm Island,,Saskatchewan
CJS3,Cluff Lake Airport,58.3911018372,-109.5159988403,Cluff Lake,,Saskatchewan
CJS5,Killarney Municipal Airport,49.1516990662,-99.6902999878,Killarney,,Manitoba
CJT2,Matheson Island Airport,51.7322006226,-96.9344024658,Matheson Island,,Manitoba
CJT3,Knee Lake Airport,54.9152984619,-94.7981033325,Knee Lake,,Manitoba
CJT4,Cumberland House Airport,53.9561004639,-102.297996521,Cumberland House,,Saskatchewan
CJT5,Melita Airport,49.2616996765,-101.013999939,Melita,,Manitoba
CJT9,Leoville Airport,53.6206016541,-107.6090011597,Leoville,,Saskatchewan
CJU3,Macdonald Airport,50.0964012146,-98.5008010864,Macdonald,,Manitoba
CJU4,Humboldt Airport,52.1761016846,-105.1269989014,Humboldt,,Saskatchewan
CJU5,Minnedosa Airport,50.271900177,-99.7630996704,Minnedosa,,Manitoba
CJU6,Arborg Airport,50.9127998352,-97.304397583,Arborg,,Manitoba
CJU7,Edam Airport,53.1850013733,-108.7890014648,Edam,,Saskatchewan
CJV2,Neilburg Airport,52.831401825,-109.6399993896,Neilburg,,Saskatchewan
CJV4,Otter Lake Airport,55.5811004639,-104.7850036621,Otter Lake,,Saskatchewan
CJV5,Neepawa Airport,50.23279953,-99.510597229,Neepawa,,Manitoba
CJV7,Summer Beaver Airport,52.7085990906,-88.5419006348,Summer Beaver,SUR,Ontario
CJV8,Grand Rapids Airport,53.1725006104,-99.323097229,Grand Rapids,,Manitoba
CJV9,Melville Municipal Airport,50.9413986206,-102.7379989624,Melville,,Saskatchewan
CJW2,Oxbow Airport,49.2332992554,-102.1500015259,Oxbow,,Saskatchewan
CJW3,Loon Lake Airport,54.0182991028,-109.1350021362,Loon Lake,,Saskatchewan
CJW4,Pelican Narrows Airport,55.2868995667,-102.75,Pelican Narrows,,Saskatchewan
CJW5,Russell Airport,50.7658004761,-101.2949981689,Russell,,Manitoba
CJW7,Cigar Lake Airport,58.0531005859,-104.4840011597,Cigar Lake,,Saskatchewan
CJX4,Rosetown Airport,51.5643997192,-107.9179992676,Rosetown,,Saskatchewan
CJX5,Souris Glenwood Industrial Air Park,49.6333007813,-100.1999969482,Souris Glenwood,,Manitoba
CJY3,Tisdale Airport,52.8367004395,-104.0670013428,Tisdale,,Saskatchewan
CJY4,Sandy Bay Airport,55.5456008911,-102.2720031738,Sandy Bay,,Saskatchewan
CJY5,Strathclair Airport,50.3960990906,-100.4250030518,Strathclair,,Manitoba
CJZ2,Portage La Prairie (North) Airport,49.9925003052,-98.3031005859,Portage La Prairie,,Manitoba
CJZ3,Melfort Airport,52.8666992188,-104.6999969482,Melfort,,Saskatchewan
CJZ4,Shellbrook Airport,53.2282981873,-106.3629989624,Shellbrook,,Saskatchewan
CKA4,Zhoda Airport,49.2807998657,-96.5010986328,Zhoda,,Manitoba
CKA9,Southend Airport,56.3372001648,-103.2929992676,Southend,,Saskatchewan
CKB2,Patuanak Airport,55.9000015259,-107.7210006714,Patuanak,,Saskatchewan
CKB6,Wapekeka Airport,53.8492012024,-89.5793991089,Angling Lake,YAX,Ontario
CKB7,Roblin Airport,51.2344017029,-101.3929977417,Roblin,,Manitoba
CKB8,Silver Falls Airport,50.5,-96.0980987549,Silver Falls,,Manitoba
CKC6,Lanigan Airport,51.8452987671,-104.9919967651,Lanigan,,Saskatchewan
CKC7,Rockglen Airport,49.1666984558,-105.9329986572,Rockglen,,Saskatchewan
CKC8,Somerset Airport,49.4002990723,-98.6924972534,Somerset,,Manitoba
CKC9,Pangman Airport,49.6464004517,-104.6660003662,Pangman,,Saskatchewan
CKD2,Porcupine Plain Airport,52.6197013855,-103.2480010986,Porcupine Plain,,Saskatchewan
CKD5,Kipling Airport,50.0992012024,-102.6070022583,Kipling,,Saskatchewan
CKD7,Roland (Graham Field) Airport,49.4082984924,-97.9906005859,Roland,,Manitoba
CKD8,Kirkfield / Balsam Lake Airfield,44.5399876549,-78.8892602921,,,Ontario
CKD9,Slate Falls Airport,51.1300010681,-91.6656036377,Slate Falls,,Ontario
CKE2,Quill Lake Airport,52.0666999817,-104.266998291,Quill Lake,,Saskatchewan
CKE8,Unity Airport,52.4458007813,-109.1849975586,Unity,,Saskatchewan
CKF2,Radville Airport,49.4606018066,-104.2720031738,Radville,,Saskatchewan
CKF4,Goodsoil Airport,54.4166984558,-109.233001709,Goodsoil,,Saskatchewan
CKF6,Macgregor Airport,49.9667015076,-98.75,Macgregor,,Manitoba
CKF9,De Lesseps Lake Airport,50.7174987793,-90.6836013794,De Lesseps Lake,,Ontario
CKG2,Riverton Airport,50.971698761,-97.011100769,Riverton,,Manitoba
CKG5,Manitou Airport,49.25,-98.5333023071,Manitou,,Manitoba
CKH2,Rocanville Airport,50.4646987915,-101.5540008545,Rocanville,,Saskatchewan
CKH3,Debden Airport,53.5318984985,-106.8840026855,Debden,,Saskatchewan
CKH7,Spiritwood Airport,53.3633003235,-107.547996521,Spiritwood,,Saskatchewan
CKJ8,Molson Lake Airport,54.2580986023,-97.011100769,Molson Lake,,Manitoba
CKJ9,Lemberg Airport,50.7089004517,-103.1969985962,Lemberg,,Saskatchewan
CKK2,St. Brieux Airport,52.6500015259,-104.8669967651,St. Brieux,,Saskatchewan
CKK3,Scobey Border Station Airport,48.9994659424,-105.3993377686,Coronach,,Montana
CKK4,Estevan (South) Airport,49.038898468,-102.9759979248,Estevan,,Saskatchewan
CKK5,Eastend Airport,49.5499992371,-108.8000030518,Eastend,,Saskatchewan
CKL3,Wunnumin Lake Airport,52.893901825,-89.2891998291,Wunnumin Lake,WNN,Ontario
CKL5,Shoal Lake Airport,50.4575004578,-100.6090011597,Shoal Lake,,Manitoba
CKL6,Little Bear Lake Airport,54.2919006348,-104.6709976196,Little Bear Lake,,Saskatchewan
CKM2,Sioux Narrows Airport,49.3899993896,-93.995300293,Sioux Narrows,,Ontario
CKM4,Jan Lake Airport,54.8307991028,-102.7890014648,Jan Lake,,Saskatchewan
CKM6,Easterville Airport,53.1166992188,-99.8000030518,Easterville,,Manitoba
CKM8,Opapimiskan Lake Airport,52.6067008972,-90.3768997192,Opapimiskan Lake,,Ontario
CKN5,Fillmore Airport,49.8689002991,-103.4449996948,Fillmore,,Saskatchewan
CKN8,Nekweaga Bay Airport,57.7425003052,-103.9449996948,Nekweaga Bay,,Saskatchewan
CKQ2,Squaw Rapids Airport,53.6786003113,-103.3499984741,Squaw Rapids,,Saskatchewan
CKQ3,North Spirit Lake Airport,52.4900016785,-92.9710998535,North Spirit Lake,YNO,Ontario
CKQ5,Lucky Lake Airport,50.9942016602,-107.1309967041,Lucky Lake,,Saskatchewan
CKQ6,Erickson Municipal Airport,50.4994010925,-99.8977966309,Erickson,,Manitoba
CKQ7,Vermilion Bay Airport,49.879699707,-93.4364013672,Vermilion Bay,,Ontario
CKQ8,McArthur River Airport,57.7675018311,-105.0240020752,Mcarthur River,,Saskatchewan
CKQ9,Pine Dock Airport,51.6199989319,-96.810798645,Pine Dock,,Manitoba
CKR3,Ste. Rose Du Lac Airport,51.0407981873,-99.495300293,Ste. Rose Du Lac,,Manitoba
CKR4,Lundar Airport,50.7033004761,-98.0567016602,Lundar,,Manitoba
CKR7,Virden (Gabrielle Farm) Airport,49.7846984863,-100.9560012817,Virden,,Manitoba
CKR9,Outlook Airport,51.4824981689,-107.0370025635,Outlook,,Saskatchewan
CKS6,Bryant Airport,49.4099998474,-103.1439971924,Estevan,,Saskatchewan
CKS7,Wadena Airport,51.9294480759,-103.833761215,Wadena,,Saskatchewan
CKS8,Cree Lake (Crystal Lodge) Airport,57.4641990662,-106.7480010986,Cree Lake,,Saskatchewan
CKS9,Shepherd's Landing Airport,44.1175003052,-81.6983032227,Kincardine,,Ontario
CKT5,Hartney Airport,49.4500007629,-100.5500030518,Hartney,,Manitoba
CKT7,Wakaw Airport,52.6490522523,-105.763063431,Wakaw,,Saskatchewan
CKU2,Treherne Airport,49.6310997009,-98.6663970947,Treherne,,Manitoba
CKU4,Cut Knife Airport,52.7332992554,-109.016998291,Cut Knife,,Saskatchewan
CKU5,Imperial Airport,51.3499984741,-105.4000015259,Imperial,,Saskatchewan
CKU6,Grenfell Airport,50.4192008972,-102.9349975586,Grenfell,,Saskatchewan
CKU7,Watrous Airport,51.68713736,-105.362319946,Watrous,,Saskatchewan
CKV2,Kelvington Airport,52.1333007813,-103.5350036621,Kelvington,,Saskatchewan
CKV4,North of Sixty Airport,60.3163986206,-103.1289978027,Obre Lake,,Northwest Territories
CKV6,Churchbridge Airport,51.0167007446,-101.8170013428,Churchbridge,,Saskatchewan
CKV7,Wawota Airport,49.8944823433,-102.03045845,Wawota,,Saskatchewan
CKW6,Davin Lake Airport,56.8833007813,-103.5830001831,Davin Lake,,Saskatchewan
CKX4,Fisher Branch Airport,51.0833015442,-97.4832992554,Fisher Branch,,Manitoba
CKX5,Dinsmore Airport,51.3306007385,-107.43800354,Dinsmore,,Saskatchewan
CKX8,Big River Airport,53.836101532,-107.0090026855,Big River,,Saskatchewan
CKY2,Whitewood Airport,50.3347783814,-102.274475098,Whitewood,,Saskatchewan
CKZ2,Willow Bunch Airport,49.4000015259,-105.6669998169,Willow Bunch,,Saskatchewan
CKZ3,Elk Island Airport,54.6713981628,-94.1453018188,Elk Island,,Manitoba
CKZ6,Louise Municipal Airport,49.1472015381,-98.8807983398,Crystal City-Pilot Mound,,Manitoba
CKZ7,Winkler Airport,49.1669006348,-97.9203033447,Winkler,,Manitoba
CLA5,Lethbridge / Anderson Field,49.6569444445,-112.772777778,Lethbridge,,Alberta
CLE4,Lower East Pubnico (La Field) Airport,43.6222000122,-65.7619018555,Lower East Pubnico,,Nova Scotia
CLG3,Liege / CNRL Airport,57.0018997192,-113.194000244,Liege,,Alberta
CLG7,Fort McMurray / Legend Airfield,57.19694444,-112.895556,,,Alberta
CLJ3,Lethbridge / J3 Airfield,49.7416214711,-112.738330364,,,Alberta
CLK3,Lucknow Airpark,43.9678001404,-81.4933013916,Lucknow,,Ontario
CLM2,Leamington Airport,42.0250015259,-82.5250015259,Leamington,,Ontario
CLN4,Beaverlodge / Clanachan Field,55.2344927355,-119.841592312,,,Alberta
CLS3,Fort McMurray / South Liege Airfield,56.8323528324,-113.098840714,,,Alberta
CLV2,Stayner (Clearview Field),44.404637674,-80.1479780674,,,Ontario
CMA2,Mattawa Airport,46.2997016907,-78.7478027344,Mattawa,,Ontario
CMB2,Meadowbank Airport,65.0246615457,-96.0686588287,Meadowbank Gold Mine,,Nunavut
CMF3,Lethbridge (Mercer Field),49.5548112877,-112.561540604,,,Alberta
CMN4,Minto,62.6047222222,-137.221944444,,,Yukon
CMN5,Manic-5,50.6577319114,-68.8310194016,,,Quebec
CMW3,Matawatchan,45.1643383253,-77.0955276489,,,Ontario
CNA2,Highgate Airport,42.5544013977,-81.8031005859,Highgate,,Ontario
CNA3,Springwater Barrie Airpark,44.4063987732,-79.7316970825,Springwater,,Ontario
CNA4,Emsdale Airport,45.5499992371,-79.3499984741,Emsdale,,Ontario
CNA9,Tomvale Airport,44.9160995483,-76.935798645,Plevna,,Ontario
CND4,Stanhope Municipal Airport,45.1108333333,-78.64,Haliburton,,Ontario
CNE3,Bearskin Lake Airport,53.9655990601,-91.0271987915,Bearskin Lake,XBE,Ontario
CNE4,Iroquois Falls Airport,48.7416992188,-80.793296814,Iroquois Falls,,Ontario
CNE9,Essex Airport,42.0957984924,-82.8794021606,Essex,,Ontario
CNF4,Lindsay Airport,44.3647003174,-78.7838973999,Lindsay,,Ontario
CNF8,Dwight Airport,45.3144454956,-78.9725036621,,,Ontario
CNH2,Natuashish Airport,55.913898468,-61.1843986511,Natuashish,,Newfoundland and Labrador
CNJ3,Fort Erie Airport,42.9172121601,-78.957452774,Fort Erie,,Ontario
CNJ4,Orillia Airport,44.6776557839,-79.3102169037,Orillia,,Ontario
CNK4,Parry Sound Area Municipal Airport,45.2574996948,-79.8296966553,Parry Sound,,Ontario
CNL2,Fort McMurray / North Liege Airfield,57.1360995926,-113.290071487,,,Alberta
CNL3,Brockville - Thousand Islands Regional Tackaberry Airport,44.6394004822,-75.7502975464,Brockville,,Ontario
CNL4,Port Elgin Airport,44.4152984619,-81.4143981934,Port Elgin,,Ontario
CNL7,Nobel / Lumsden Air Park,45.4083333,-80.0780555,,,Ontario
CNL8,Wyevale (Boker Field) Airport,44.6553001404,-79.8788986206,Wyevale,,Ontario
CNL9,Nueltin Lake Airport,59.7080993652,-100.1269989014,Nueltin Lake,,Manitoba
CNM5,Kingfisher Lake Airport,53.0125007629,-89.8553009033,Kingfisher Lake,KIF,Ontario
CNN8,Gananoque Airport,44.4019012451,-76.2442016602,Gananoque,,Ontario
CNP6,Nampa / Hockey,55.914900566,-117.136155367,,,Alberta
CNR4,Tobermory Airport,45.2214680842,-81.6275596619,Tobermory,,Ontario
CNR9,Arnstein Airport,45.9255981445,-79.9278030396,Arnstein,,Ontario
CNS7,Kincardine Airport,44.2014007568,-81.6066970825,Kincardine,,Ontario
CNT3,Ogoki Post Airport,51.6585998535,-85.9017028809,Ogoki Post,YOG,Ontario
CNT7,Picton Airport,43.989200592,-77.1391983032,Picton,,Ontario
CNU4,Belleville Airport,44.192199707,-77.3094024658,Belleville,,Ontario
CNV8,Edenvale Aerodrome,44.4411010742,-79.9627990723,Edenvale,,Ontario
CNW2,Windermere Airport,45.1624984741,-79.5353012085,Windermere,,Ontario
CNW3,Bancroft Airport,45.0731010437,-77.8805999756,Bancroft,,Ontario
CNX3,Carey Lake Airport,49.75,-84.0333023071,Carey Lake,,Ontario
CNY3,Collingwood Airport,44.4491996765,-80.1583023071,Collingwood,,Ontario
CNZ4,Barry's Bay / Madawaska Valley Airpark,45.5047227536,-77.6440930367,Barry's Bay,,Ontario
CPB8,Paramount Bistcho Airport,59.6380996704,-118.3330001831,Paramount Bistcho,,Alberta
CPC6,Teeswater (Thompson Field) Airport,43.948299408,-81.2718963623,Teeswater,,Ontario
CPD4,Brussels (Armstrong Field) Airport,43.75,-81.2332992554,Brussels,,Ontario
CPE3,Elk Lake Airport,47.7285995483,-80.3158035278,Elk Lake,,Ontario
CPE6,South River/Sundridge Airport & Float Plane Base,45.8210983276,-79.3233032227,South River - Sundridge,,Ontario
CPF2,Bar River Airport,46.42029953,-84.0922012329,Bar River,YEB,Ontario
CPF4,Bruce McPhail Memorial Airport,45.5950012207,-76.8332977295,Cobden,,Ontario
CPF7,Southampton Airport,44.4939002991,-81.3352966309,Southampton,,Ontario
CPG6,Port Elgin (Pryde Field) Airport,44.4589004517,-81.379699707,Port Elgin,,Ontario
CPH2,Rolph Airport,46.1166992188,-77.5333023071,Deep River,,Ontario
CPH3,Port Hope (Peter's Field),44.0248843879,-78.4269762039,Port Hope,,Ontario
CPJ5,Stirling Airport,44.2414016724,-77.5616989136,Stirling,,Ontario
CPL5,Thessalon Municipal Airport,46.3166999817,-83.5333023071,Thessalon,,Ontario
CPM3,POURVOIRIE MIRAGE AERODROME,53.8025,-72.841389,,,Quebec
CPR7,Wingham / Richard W. LeVan Airport,43.8675003052,-81.2985992432,Wingham,,Ontario
CPS2,Elmhirst's Resort Airport,44.251470223,-78.1072568893,Keene,,Ontario
CPS5,Miminiska Airport,51.6044006348,-88.5821990967,Miminiska,,Ontario
CPT2,Killarney Airport,45.9775009155,-81.4946975708,Killarney,,Ontario
CPU6,Tyendinaga Mohawk Airport,44.1847000122,-77.1078033447,Tyendinaga,,Ontario
CPV3,St. Joseph Island Airport,46.2832984924,-83.9499969482,St. Joseph Island,,Ontario
CPV7,Poplar Hill Airport,52.1133003235,-94.2555999756,Poplar Hill,YHP,Ontario
CPV8,Keewaywin Airport,52.9911003113,-92.8364028931,Keewaywin,,Ontario
CPZ3,Trenton / Mountain View Airport,44.0694007874,-77.3380966187,Mountain View,,Ontario
CRB2,Cottam Airport,42.1399993896,-82.6528015137,Cottam,,Ontario
CRB4,Riviere Bonnard Airport,50.7043991089,-71.1624984741,Riviere Bonnard,,Quebec
CRB5,Riviere Bell Airport,49.0788993835,-62.2369003296,Riviere Bell,,Quebec
CRD4,Red Deer / South 40 Airstrip,52.261944,-113.951389,,,Alberta
CRD5,Red Deer / Truant Airfield,52.2870428404,-113.913180828,,,Alberta
CRE2,Edzo Airport,62.7667007446,-116.0839996338,Rae,,Northwest Territories
CRJ2,Stoney Point (Trepanier),42.2888870239,-82.5983352661,,,Ontario
CRL2,Westport / Rideau Lakes Airport,44.6666651766,-76.3966673613,Westport,,Ontario
CRL4,Kirby Lake Airport,55.3555984497,-110.6370010376,Kirby Lake,,Alberta
CRL7,Reindeer Lake / Lindbergh Lodge Airstrip,57.28805555,-102.525,,,Saskatchewan
CRM2,Riding Mountain Airport,50.573600769,-99.3613967896,Riding Mountain,,Manitoba
CRML,Stoney Point (Le Cunff) Airport,42.2956008911,-82.5350036621,Stoney Point,,Ontario
CRP2,R.M. of Pipestone Airport,49.5806007385,-101.0530014038,Reston,,Manitoba
CRS7,Matoush Airport,51.905,-72.12388888,,,Quebec
CRT2,Riviere Temiscamie (Air Roberval Ltee) Airport,51.0092455225,-72.9835939407,,,Quebec
CSB2,Sable Island Landing Strip,43.9303535212,-59.9597740173,Sable Island,,Nova Scotia
CSC3,Drummondville Airport,45.8452987671,-72.3946990967,Drummondville,,Quebec
CSC5,Lac Etchemin Airport,46.4071998596,-70.5014038086,Lac Etchemin,,Quebec
CSC9,Sudbury / Coniston Airport,46.4822006226,-80.8339004517,Sudbury,,Ontario
CSD4,Mont Laurier Airport,46.5643997192,-75.577796936,Mont-Laurier,,Quebec
CSF3,Poste Montagnais (Mile 134) Airport,51.8885993958,-65.7149963379,Poste Montagnais,,Quebec
CSH4,Lebel-sur-Quevillon Airport,49.0303001404,-77.0171966553,Lebel-sur-Quevillon,,Quebec
CSJ2,Kanawata Aeroparc Airport,47.5946998596,-74.1335983276,Kanawata,,Quebec
CSJ4,Louiseville Airport,46.2461013794,-72.9044036865,Louiseville,,Quebec
CSJ5,St-Louis-De-France Airport,46.4366989136,-72.6303024292,St-Louis-De-France,,Quebec
CSK4,Mansonville Airport,45.0264015198,-72.4019012451,Mansonville,,Quebec
CSK6,Snap Lake Airport,63.5936012268,-110.90599823,Snap Lake,YNX,Northwest Territories
CSL3,Lac a la Tortue Airport,46.6217002869,-72.6303024292,Lac-a-la-Tortue,,Quebec
CSL5,St-Victor-De-Beauce Airport,46.1183013916,-70.8891983032,St-Victor-De-Beauce,,Quebec
CSL9,Baie-Comeau (Manic 1) Airport,49.1843986511,-68.3625030518,Baie-Comeau,,Quebec
CSM3,Thetford Mines Airport,46.051700592,-71.2572021484,Thetford Mines,,Quebec
CSM5,St-Michel-Des-Saints Airport,46.6808013916,-73.993598938,St-Michel-Des-Saints,,Quebec
CSN5,Stanhope Airport,45.0155982971,-71.7944030762,Stanhope,,Quebec
CSQ2,Shuswap (Skwlax Field) Airport,50.8786689434,-119.590816498,,,British Columbia
CSQ3,Valcourt Airport,45.481098175,-72.3103027344,Valcourt,,Quebec
CSR3,Victoriaville Airport,46.1128005981,-71.9289016724,Victoriaville,,Quebec
CSR8,La Sarre Airport,48.9171981812,-79.1785964966,La Sarre,,Quebec
CSU2,Chisasibi Airport,53.8055992126,-78.9169006348,Chisasibi,YKU,Quebec
CSU4,Ste-Lucie-De-Beauregard Airport,46.7407989502,-70.0325012207,Ste-Lucie-De-Beauregard,,Quebec
CSU5,Weymontachie Airport,47.9369010925,-73.817199707,Weymontachie,,Quebec
CSU7,Lac-a-la-Tortue (Water Aerodrome) Airport,46.6166992188,-72.6258010864,Lac-a-la-Tortue,,Quebec
CSY3,Sorel Airport,45.9803009033,-73.0421981812,Sorel,,Quebec
CSY4,St-Donat Airport,46.3058013916,-74.1813964844,St-Donat,,Quebec
CSZ3,St-Jovite Airport,46.1542015076,-74.5836029053,Mont-Tremblant,,Quebec
CTA3,Ile aux Coudres Airport,47.3894004822,-70.3843994141,Ile aux Coudres,,Quebec
CTA4,St Bruno-de-Guigues Airport,47.4491996765,-79.4180984497,St-Bruno-de-Guigues,,Quebec
CTB6,Tete-a-la-Baleine Airport,50.6744003296,-59.3835983276,Tete-a-la-Baleine,ZTB,Quebec
CTE5,Lac a la Perchaude Airport,46.6225013733,-72.8482971191,Lac a la Perchaude,,Quebec
CTF3,Causapscal Airport,48.3114013672,-67.2514038086,Causapscal,,Quebec
CTF4,Dundalk (Tripp Field),44.1743863972,-80.3079128265,,,Ontario
CTG3,Du Rocher-Perce (Pabok) Airport,48.3833007813,-64.5643997192,Du Rocher-Perce,,Quebec
CTH2,Thor Lake Airport,62.1007902302,-112.624111176,,,Northwest Territories
CTH3,Grandes-Bergeronnes Airport,48.2322006226,-69.5428009033,Grandes-Bergeronnes,,Quebec
CTK2,Senneterre Airport,48.3405990601,-77.181098938,Senneterre,,Quebec
CTK6,Kegaska Airport,50.1958007813,-61.2658004761,Kegaska,,Quebec
CTN6,Treherne (South Norfolk Airpark) Airport,49.6596984863,-98.6652984619,Treherne,,Manitoba
CTP9,Donaldson Airport,61.6622009277,-73.3214035034,Kattiniq,YAU,Quebec
CTQ2,Weller Airport,45.0344009399,-72.0350036621,Stanstead,,Vermont
CTT5,La Romaine Airport,50.2597007751,-60.6794013977,La Romaine,,Quebec
CTU2,Fontanges Airport,54.5539016724,-71.1733016968,Fontanges,,Quebec
CTU5,La Tabatiere Airport,50.8307991028,-58.9756011963,La Tabatiere,ZLT,Quebec
CTY4,Olds / North 40 Ranch Airstrip,51.9001705129,-114.147820473,,,Alberta
CVB2,Voisey's Bay,56.3447222222,-62.0880555556,,,Newfoundland and Labrador
CVS2,Viking (South) Airport,53.0256004333,-111.9489974976,Viking,,Alberta
CWF2,Walter's Falls (Piper Way) Airfield,44.463879951,-80.6214737892,,,Ontario
CWJC,Ennadai Lake Airport,61.1333333333,-100.9,Ennadai,,Nunavut
CYAB,Arctic Bay Airport,73.0057668174,-85.0425052643,,YAB,Nunavut
CYAC,Cat Lake Airport,51.7271995544,-91.8244018555,Cat Lake,YAC,Ontario
CYAD,La Grande-3 Airport,53.5717010498,-76.1964035034,La Grande-3,YAR,Quebec
CYAG,Fort Frances Municipal Airport,48.6542015076,-93.4396972656,Fort Frances,YAG,Ontario
CYAH,La Grande-4 Airport,53.754699707,-73.6753005981,La Grande-4,YAH,Quebec
CYAL,Alert Bay Airport,50.5821990967,-126.9160003662,Alert Bay,YAL,British Columbia
CYAM,Sault Ste Marie Airport,46.4850006104,-84.5093994141,Sault Ste Marie,YAM,Ontario
CYAQ,Kasabonika Airport,53.5247001648,-88.6427993774,Kasabonika,XKS,Ontario
CYAS,Kangirsuk Airport,60.0271987915,-69.9991989136,Kangirsuk,YKG,Quebec
CYAT,Attawapiskat Airport,52.9275016785,-82.4319000244,Attawapiskat,YAT,Ontario
CYAU,Liverpool South Shore Regional Airport,44.2303009033,-64.8561019897,Liverpool,,Nova Scotia
CYAX,Lac Du Bonnet Airport,50.2943992615,-96.0100021362,Lac Du Bonnet,,Manitoba
CYAY,St. Anthony Airport,51.3918991089,-56.0830993652,St. Anthony,YAY,Newfoundland and Labrador
CYAZ,Tofino / Long Beach Airport,49.0798255464,-125.775604248,Tofino,YAZ,British Columbia
CYBA,Banff Airport,51.2073404699,-115.541861057,Banff,YBA,Alberta
CYBB,Kugaaruk Airport,68.5344009399,-89.8080978394,Kugaaruk,YBB,Nunavut
CYBC,Baie Comeau Airport,49.1324996948,-68.2043991089,Baie-Comeau,YBC,Quebec
CYBD,Bella Coola Airport,52.3875007629,-126.5960006714,Bella Coola,QBC,British Columbia
CYBE,Uranium City Airport,59.5614013672,-108.4810028076,Uranium City,YBE,Saskatchewan
CYBF,Bonnyville Airport,54.3041992188,-110.7440032959,Bonnyville,YBY,Alberta
CYBG,CFB Bagotville,48.3306007385,-70.9963989258,Bagotville,YBG,Quebec
CYBK,Baker Lake Airport,64.2988967896,-96.077796936,Baker Lake,YBK,Nunavut
CYBL,Campbell River Airport,49.9508018494,-125.2710037231,Campbell River,YBL,British Columbia
CYBP,Brooks Regional,50.6335983276,-111.9260025024,Brooks,,Alberta
CYBQ,Tadoule Lake Airport,58.7061004639,-98.5121994019,Tadoule Lake,XTL,Manitoba
CYBR,Brandon Municipal Airport,49.9099998474,-99.9518966675,Brandon,YBR,Manitoba
CYBT,Brochet Airport,57.8894004822,-101.6790008545,Brochet,YBT,Manitoba
CYBU,Nipawin Airport,53.3325004578,-104.0080032349,Nipawin,,Saskatchewan
CYBV,Berens River Airport,52.3588981628,-97.0183029175,Berens River,YBV,Manitoba
CYBX,Lourdes de Blanc Sablon Airport,51.4435997009,-57.1852989197,Lourdes-De-Blanc-Sablon,YBX,Quebec
CYCA,Cartwright Airport,53.682800293,-57.0419006348,Cartwright,YRF,Newfoundland and Labrador
CYCB,Cambridge Bay Airport,69.1081008911,-105.138000488,Cambridge Bay,YCB,Nunavut
CYCC,Cornwall Regional Airport,45.0928001404,-74.5633010864,Cornwall,YCC,Quebec
CYCG,Castlegar/West Kootenay Regional Airport,49.2963981628,-117.632003784,Castlegar,YCG,British Columbia
CYCH,Miramichi Airport,47.0078010559,-65.4492034912,Miramichi,YCH,New Brunswick
CYCK,Chatham Kent Airport,42.3064002991,-82.0819015503,Chatham-Kent,XCM,Ontario
CYCL,Charlo Airport,47.9907989502,-66.3302993774,Charlo,YCL,New Brunswick
CYCN,Cochrane Airport,49.1055984497,-81.0136032104,Cochrane,YCN,Ontario
CYCO,Kugluktuk Airport,67.8167037964,-115.143997192,Kugluktuk,YCO,Nunavut
CYCP,Blue River Airport,52.1166992188,-119.2829971313,Blue River,,British Columbia
CYCQ,Chetwynd Airport,55.6871986389,-121.6269989014,Chetwynd,YCQ,British Columbia
CYCR,Cross Lake (Charlie Sinclair Memorial) Airport,54.6105995178,-97.7608032227,Cross Lake,YCR,Manitoba
CYCS,Chesterfield Inlet Airport,63.3469009399,-90.7311019897,Chesterfield Inlet,YCS,Nunavut
CYCT,Coronation Airport,52.0750007629,-111.4449996948,Coronation,YCT,Alberta
CYCY,Clyde River Airport,70.4860992432,-68.5167007446,Clyde River,YCY,Nunavut
CYCZ,Fairmont Hot Springs Airport,50.3302993774,-115.873001099,Fairmont Hot Springs,YCZ,British Columbia
CYDA,Dawson City Airport,64.0430984497,-139.1280059814,Dawson City,YDA,Yukon
CYDB,Burwash Airport,61.3711013794,-139.0410003662,Burwash,YDB,Yukon
CYDC,Princeton Airport,49.4681015015,-120.511001587,Town of Princeton,,British Columbia
CYDF,Deer Lake Airport,49.2108001709,-57.3913993835,Deer Lake,YDF,Newfoundland and Labrador
CYDL,Dease Lake Airport,58.4221992493,-130.0319976807,Dease Lake,YDL,British Columbia
CYDM,Ross River Airport,61.9706001282,-132.4230041504,Ross River,YDM,Yukon
CYDN,Dauphin Barker Airport,51.1007995605,-100.0520019531,Dauphin,YDN,Manitoba
CYDO,Dolbeau St Felicien Airport,48.7784996033,-72.375,Dolbeau-St-Felicien,YDO,Quebec
CYDP,Nain Airport,56.5491981506,-61.6803016663,Nain,YDP,Newfoundland and Labrador
CYDQ,Dawson Creek Airport,55.7422981262,-120.1829986572,Dawson Creek,YDQ,British Columbia
CYEA,Empress Airport,50.9333000183,-110.0130004883,Empress,,Alberta
CYEE,Huronia Airport,44.6833000183,-79.9282989502,Midland,,Ontario
CYEG,Edmonton International Airport,53.3097000122,-113.580001831,Edmonton,YEG,Alberta
CYEK,Arviat Airport,61.0942001343,-94.0708007812,Arviat,YEK,Nunavut
CYEL,Elliot Lake Municipal Airport,46.351398468,-82.5614013672,Elliot Lake,YEL,Ontario
CYEM,Manitoulin East Municipal Airport,45.8428001404,-81.8581008911,Manitowaning,YEM,Ontario
CYEN,Estevan Airport,49.2103004456,-102.966003418,Estevan,YEN,Saskatchewan
CYER,Fort Severn Airport,56.018901825,-87.6761016846,Fort Severn,YER,Ontario
CYES,Edmundston Airport,47.4906005859,-68.4819030762,Edmundston,,New Brunswick
CYET,Edson Airport,53.5788993835,-116.464996338,Edson,YET,Alberta
CYEU,Eureka Airport,79.9946975708,-85.814201355,Eureka,YEU,Nunavut
CYEV,Inuvik Mike Zubko Airport,68.3041992188,-133.483001709,Inuvik,YEV,Northwest Territories
CYEY,Amos Magny Airport,48.5638999939,-78.2497024536,Amos,YEY,Quebec
CYFA,Fort Albany Airport,52.2014007568,-81.6968994141,Fort Albany,YFA,Ontario
CYFB,Iqaluit Airport,63.756401062,-68.5558013916,Iqaluit,YFB,Nunavut
CYFC,Fredericton Airport,45.8689002991,-66.5372009277,Fredericton,YFC,New Brunswick
CYFE,Forestville Airport,48.7461013794,-69.0971984863,Forestville,YFE,Quebec
CYFH,Fort Hope Airport,51.5619010925,-87.9077987671,Fort Hope,YFH,Ontario
CYFJ,La Macaza / Mont-Tremblant International Inc Airport,46.4094009399,-74.7799987793,Riviere Rouge,YTM,Quebec
CYFO,Flin Flon Airport,54.6781005859,-101.6819992065,Flin Flon,YFO,Manitoba
CYFR,Fort Resolution Airport,61.1808013916,-113.690002441,Fort Resolution,YFR,Northwest Territories
CYFS,Fort Simpson Airport,61.7602005005,-121.2369995117,Fort Simpson,YFS,Northwest Territories
CYFT,Makkovik Airport,55.0769004822,-59.1864013672,Makkovik,YMN,Newfoundland and Labrador
CYGB,Texada Gillies Bay Airport,49.6941986084,-124.5179977417,Texada,YGB,British Columbia
CYGD,Goderich Airport,43.7668991089,-81.7106018066,Goderich,YGD,Ontario
CYGE,Golden Airport,51.2991981506,-116.9820022583,Golden,,British Columbia
CYGH,Fort Good Hope Airport,66.2407989502,-128.6510009766,Fort Good Hope,YGH,Northwest Territories
CYGK,Kingston Norman Rogers Airport,44.2252998352,-76.5969009399,Kingston,YGK,Ontario
CYGL,La Grande Riviere Airport,53.6253013611,-77.7042007446,La Grande Riviere,YGL,Quebec
CYGM,Gimli Industrial Park Airport,50.6281013489,-97.043296814,Gimli,YGM,Manitoba
CYGO,Gods Lake Narrows Airport,54.5588989258,-94.4914016724,Gods Lake Narrows,YGO,Manitoba
CYGP,Gaspe (Michel-Pouliot) Airport,48.7752990723,-64.4785995483,Gaspe,YGP,Quebec
CYGQ,Geraldton Greenstone Regional Airport,49.778301239,-86.9393997192,Geraldton,YGQ,Ontario
CYGR,Iles-de-la-Madeleine Airport,47.4247016907,-61.7780990601,Iles-de-la-Madeleine,YGR,Quebec
CYGT,Igloolik Airport,69.3647003174,-81.8161010742,Igloolik,YGT,Nunavut
CYGV,Havre St Pierre Airport,50.2818984985,-63.6114006042,Havre St-Pierre,YGV,Quebec
CYGW,Kuujjuarapik Airport,55.2818984985,-77.765296936,Kuujjuarapik,YGW,Quebec
CYGZ,Grise Fiord Airport,76.4261016846,-82.9092025757,Grise Fiord,YGZ,Nunavut
CYHA,Quaqtaq Airport,61.0463981628,-69.6177978516,Quaqtaq,YQC,Quebec
CYHB,Hudson Bay Airport,52.8166999817,-102.3109970093,Hudson Bay,YHB,Saskatchewan
CYHD,Dryden Regional Airport,49.8316993713,-92.7442016602,Dryden,YHD,Ontario
CYHF,Hearst Rene Fontaine Municipal Airport,49.7141990662,-83.6860961914,Hearst,YHF,Ontario
CYHH,Nemiscau Airport,51.6911010742,-76.135597229,Nemiscau,YNS,Quebec
CYHI,Ulukhaktok Holman Airport,70.762802124,-117.8059997559,Ulukhaktok,YHI,Northwest Territories
CYHK,Gjoa Haven Airport,68.635597229,-95.8497009277,Gjoa Haven,YHK,Nunavut
CYHM,John C. Munro Hamilton International Airport,43.1735992432,-79.9349975586,Hamilton,YHM,Ontario
CYHN,Hornepayne Municipal Airport,49.1930999756,-84.7589035034,Hornepayne,YHN,Ontario
CYHO,Hopedale Airport,55.448299408,-60.2285995483,Hopedale,YHO,Newfoundland and Labrador
CYHR,Chevery Airport,50.4688987732,-59.6366996765,Chevery,YHR,Quebec
CYHS,Hanover / Saugeen Municipal Airport,44.1582984924,-81.0627975464,Hanover,,Ontario
CYHT,Haines Junction Airport,60.7891998291,-137.546005249,Haines Junction,YHT,Yukon
CYHY,Hay River / Merlyn Carter Airport,60.8396987915,-115.782997131,Hay River,YHY,Northwest Territories
CYHZ,Halifax / Stanfield International Airport,44.8807983398,-63.5085983276,Halifax,YHZ,Nova Scotia
CYIB,Atikokan Municipal Airport,48.7738990784,-91.6386032104,Atikokan,YIB,Ontario
CYID,Digby / Annapolis Regional Airport,44.5458450365,-65.7854247093,Digby,YDG,Nova Scotia
CYIF,St Augustin Airport,51.2117004395,-58.6582984924,St-Augustin,YIF,Quebec
CYIK,Ivujivik Airport,62.417301178,-77.9253005981,Ivujivik,YIK,Quebec
CYIO,Pond Inlet Airport,72.6832962036,-77.9666976929,Pond Inlet,YIO,Nunavut
CYIV,Island Lake Airport,53.8572006226,-94.6536026001,Island Lake,YIV,Manitoba
CYJA,Jasper Airport,52.9967002869,-118.0589981079,Jasper,YJA,Alberta
CYJF,Fort Liard Airport,60.2358016968,-123.46900177,Fort Liard,YJF,Northwest Territories
CYJM,Fort St James Airport,54.3972015381,-124.2630004883,Fort St. James,,British Columbia
CYJP,Fort Providence Airport,61.3194007874,-117.6060028076,Fort Providence,,Northwest Territories
CYJQ,Denny Island Airport,52.1397018433,-128.063995361,Bella Bella,,British Columbia
CYJT,Stephenville Airport,48.5442008972,-58.5499992371,Stephenville,YJT,Newfoundland and Labrador
CYKA,Kamloops Airport,50.7022018433,-120.4440002441,Kamloops,YKA,British Columbia
CYKC,Collins Bay Airport,58.2360992432,-103.6780014038,Collins Bay,YKC,Saskatchewan
CYKD,Aklavik Airport,68.2232971191,-135.0059967041,Aklavik,LAK,Northwest Territories
CYKF,Waterloo Airport,43.4608001709,-80.3786010742,Kitchener,YKF,Ontario
CYKG,Kangiqsujuaq (Wakeham Bay) Airport,61.5886001587,-71.929397583,Kangiqsujuaq,YWB,Quebec
CYKJ,Key Lake Airport,57.2560997009,-105.6179962158,Key Lake,YKJ,Saskatchewan
CYKL,Schefferville Airport,54.8053016663,-66.8052978516,Schefferville,YKL,Quebec
CYKO,Akulivik Airport,60.8185997009,-78.1485977173,Akulivik,AKV,Quebec
CYKQ,Waskaganish Airport,51.4733009338,-78.7583007813,Waskaganish,YKQ,Quebec
CYKX,Kirkland Lake Airport,48.2103004456,-79.9813995361,Kirkland Lake,YKX,Ontario
CYKY,Kindersley Airport,51.5175018311,-109.180999756,Kindersley,YKY,Saskatchewan
CYLA,Aupaluk Airport,59.2966995239,-69.5997009277,Aupaluk,YPJ,Quebec
CYLB,Lac La Biche Airport,54.7703018188,-112.0319976807,Lac La Biche,YLB,Alberta
CYLC,Kimmirut Airport,62.8499984741,-69.8833007812,Kimmirut,YLC,Nunavut
CYLD,Chapleau Airport,47.8199996948,-83.3467025757,Chapleau,YLD,Ontario
CYLH,Lansdowne House Airport,52.1955986023,-87.9341964722,Lansdowne House,YLH,Ontario
CYLI,Lillooet Airport,50.6747016907,-121.893997192,Lillooet,,British Columbia
CYLJ,Meadow Lake Airport,54.1253013611,-108.5230026245,Meadow Lake,YLJ,Saskatchewan
CYLK,Lutselk'e Airport,62.4183006287,-110.6819992065,Lutselk'e,YSG,Northwest Territories
CYLL,Lloydminster Airport,53.3092002869,-110.0729980469,Lloydminster,YLL,Saskatchewan
CYLQ,La Tuque Airport,47.4096984863,-72.7889022827,La Tuque,YLQ,Quebec
CYLR,Leaf Rapids Airport,56.5133018494,-99.9852981567,Leaf Rapids,YLR,Manitoba
CYLS,Barrie-Orillia (Lake Simcoe Regional Airport),44.4852981567,-79.5556030273,Barrie-Orillia,YLK,Ontario
CYLT,Alert Airport,82.5177993774,-62.2806015015,Alert,YLT,Nunavut
CYLU,Kangiqsualujjuaq (Georges River) Airport,58.7113990784,-65.9927978516,Kangiqsualujjuaq,XGR,Quebec
CYLW,Kelowna Airport,49.9561004639,-119.3779983521,Kelowna,YLW,British Columbia
CYMA,Mayo Airport,63.6164016724,-135.8679962158,Mayo,YMA,Yukon
CYME,Matane Airport,48.8568992615,-67.4533004761,Matane,YME,Quebec
CYMG,Manitouwadge Airport,49.0839004517,-85.8606033325,Manitouwadge,YMG,Ontario
CYMH,Mary's Harbour Airport,52.3027992249,-55.8471984863,Mary's Harbour,YMH,Newfoundland and Labrador
CYML,Charlevoix Airport,47.5974998474,-70.2238998413,Charlevoix,YML,Quebec
CYMM,Fort McMurray Airport,56.653301239,-111.222000122,Fort McMurray,YMM,Alberta
CYMO,Moosonee Airport,51.2910995483,-80.6078033447,Moosonee,YMO,Ontario
CYMT,Chapais Airport,49.771900177,-74.5280990601,Chibougamau,YMT,Quebec
CYMU,Umiujaq Airport,56.5360984802,-76.5183029175,Umiujaq,YUD,Quebec
CYMW,Maniwaki Airport,46.2728004456,-75.9906005859,Maniwaki,YMW,Quebec
CYMY,Ear Falls Airport,50.7178001404,-93.3835983276,Ear Falls,,Ontario
CYNA,Natashquan Airport,50.1899986267,-61.7891998291,Natashquan,YNA,Quebec
CYNC,Wemindji Airport,53.0106010437,-78.8311004639,Wemindji,YNC,Quebec
CYNE,Norway House Airport,53.9583015442,-97.8442001343,Norway House,YNE,Manitoba
CYNH,Hudsons Hope Airport,56.0355987549,-121.9759979248,Hudson's Hope,YNH,British Columbia
CYNL,Points North Landing Airport,58.2766990662,-104.0820007324,Points North Landing,YNL,Saskatchewan
CYNM,Matagami Airport,49.7616996765,-77.8028030396,Matagami,YNM,Quebec
CYNN,Nejanilini Lake Airport,59.4874992371,-97.7802963257,Nejanilini Lake,YNN,Manitoba
CYNR,Fort Mackay / Horizon Airport,57.3816986084,-111.700996399,Fort Mackay,HZP,Alberta
CYOA,Ekati Airport,64.6988983154,-110.614997864,Ekati,YOA,Northwest Territories
CYOC,Old Crow Airport,67.570602417,-139.8390045166,Old Crow,YOC,Yukon
CYOD,CFB Cold Lake,54.4049987793,-110.2789993286,Cold Lake,YOD,Alberta
CYOH,Oxford House Airport,54.9333000183,-95.2789001465,Oxford House,YOH,Manitoba
CYOJ,High Level Airport,58.6213989258,-117.1650009155,High Level,YOJ,Alberta
CYOP,Rainbow Lake Airport,58.4914016724,-119.4079971313,Rainbow Lake,YOP,Alberta
CYOS,Owen Sound / Billy Bishop Regional Airport,44.5903015137,-80.8375015259,Owen Sound,YOS,Ontario
CYOW,Ottawa Macdonald-Cartier International Airport,45.3224983215,-75.6691970825,Ottawa,YOW,Ontario
CYPA,Prince Albert Glass Field,53.2141990662,-105.672996521,Prince Albert,YPA,Saskatchewan
CYPC,Paulatuk (Nora Aliqatchialuk Ruben) Airport,69.3608381154,-124.075469971,Paulatuk,YPC,Northwest Territories
CYPD,Port Hawkesbury Airport,45.6567001343,-61.3680992126,Port Hawkesbury,YPS,Nova Scotia
CYPE,Peace River Airport,56.2268981934,-117.4469985962,Peace River,YPE,Alberta
CYPH,Inukjuak Airport,58.4719009399,-78.0768966675,Inukjuak,YPH,Quebec
CYPL,Pickle Lake Airport,51.4463996887,-90.2142028809,Pickle Lake,YPL,Ontario
CYPM,Pikangikum Airport,51.8196983337,-93.9732971191,Pikangikum,YPM,Ontario
CYPN,Port Menier Airport,49.8363990784,-64.2885971069,Port-Menier,YPN,Quebec
CYPO,Peawanuck Airport,54.9880981445,-85.4432983398,Peawanuck,YPO,Ontario
CYPP,Parent Airport,47.9319000244,-74.6081008911,Parent,,Quebec
CYPQ,Peterborough Airport,44.2299995422,-78.3632965088,Peterborough,YPQ,Ontario
CYPR,Prince Rupert Airport,54.2860984802,-130.4450073242,Prince Rupert,YPR,British Columbia
CYPS,Pemberton Airport,50.3025016785,-122.7379989624,Pemberton,,British Columbia
CYPT,Pelee Island Airport,41.7803993225,-82.6780014038,Pelee Island,,Ontario
CYPU,Puntzi Mountain Airport,52.1128005981,-124.1449966431,Puntzi Mountain,,British Columbia
CYPW,Powell River Airport,49.8342018127,-124.5,Powell River,YPW,British Columbia
CYPX,Puvirnituq Airport,60.0505981445,-77.2869033813,Puvirnituq,YPX,Quebec
CYPY,Fort Chipewyan Airport,58.76720047,-111.1169967651,Fort Chipewyan,YPY,Alberta
CYPZ,Burns Lake Airport,54.3763999939,-125.9509963989,Burns Lake,YPZ,British Columbia
CYQA,Muskoka Airport,44.9747009277,-79.3032989502,Muskoka,YQA,Ontario
CYQB,Quebec Jean Lesage International Airport,46.7910995483,-71.3933029175,Quebec,YQB,Quebec
CYQD,The Pas Airport,53.9714012146,-101.091003418,The Pas,YQD,Manitoba
CYQF,Red Deer Regional Airport,52.1822013855,-113.8939971924,Red Deer,YQF,Alberta
CYQG,Windsor Airport,42.2756004333,-82.9555969238,Windsor,YQG,Ontario
CYQH,Watson Lake Airport,60.1164016724,-128.8220062256,Watson Lake,YQH,Yukon
CYQI,Yarmouth Airport,43.8269004822,-66.0880966187,Yarmouth,YQI,Nova Scotia
CYQK,Kenora Airport,49.7882995605,-94.3630981445,Kenora,YQK,Ontario
CYQL,Lethbridge County Airport,49.6302986145,-112.800003052,Lethbridge,YQL,Alberta
CYQM,Greater Moncton International Airport,46.1122016907,-64.6785964966,Moncton,YQM,New Brunswick
CYQN,Nakina Airport,50.182800293,-86.6964035034,Nakina,YQN,Ontario
CYQQ,Comox Airport,49.7108001709,-124.8870010376,Comox,YQQ,British Columbia
CYQR,Regina International Airport,50.4319000244,-104.6660003662,Regina,YQR,Saskatchewan
CYQT,Thunder Bay Airport,48.3718986511,-89.3238983154,Thunder Bay,YQT,Ontario
CYQU,Grande Prairie Airport,55.1796989441,-118.885002136,Grande Prairie,YQU,Alberta
CYQV,Yorkton Municipal Airport,51.2647018433,-102.4619979858,Yorkton,YQV,Saskatchewan
CYQW,North Battleford Airport,52.7691993713,-108.2440032959,North Battleford,YQW,Saskatchewan
CYQX,Gander International Airport,48.9369010925,-54.5680999756,Gander,YQX,Newfoundland and Labrador
CYQY,Sydney / J.A. Douglas McCurdy Airport,46.1613998413,-60.0477981567,Sydney,YQY,Nova Scotia
CYQZ,Quesnel Airport,53.0261001587,-122.5100021362,Quesnel,YQZ,British Columbia
CYRA,Rae Lakes Airport,64.1160964966,-117.3099975586,Gameti,YRA,Northwest Territories
CYRB,Resolute Bay Airport,74.7169036865,-94.9693984985,Resolute Bay,YRB,Nunavut
CYRC,Chicoutimi St Honore Airport,48.5208015442,-71.0505981445,Chicoutimi,,Quebec
CYRI,Riviere-du-Loup Airport,47.7644004822,-69.5847015381,Riviere-du-Loup,YRI,Quebec
CYRJ,Roberval Airport,48.5200004578,-72.2656021118,Roberval,YRJ,Quebec
CYRL,Red Lake Airport,51.0668983459,-93.7930984497,Red Lake,YRL,Ontario
CYRM,Rocky Mountain House Airport,52.4296989441,-114.9039993286,Rocky Mountain House,YRM,Alberta
CYRQ,Trois-Rivieres Airport,46.3527984619,-72.679397583,Trois-Rivieres,YRQ,Quebec
CYRS,Red Sucker Lake Airport,54.1671981812,-93.5571975708,Red Sucker Lake,YRS,Manitoba
CYRT,Rankin Inlet Airport,62.8114013672,-92.1157989502,Rankin Inlet,YRT,Nunavut
CYRV,Revelstoke Airport,50.9667015076,-118.182998657,Revelstoke,YRV,British Columbia
CYSB,Sudbury Airport,46.625,-80.7988967896,Sudbury,YSB,Ontario
CYSC,Sherbrooke Airport,45.4385986328,-71.6913986206,Sherbrooke,YSC,Quebec
CYSE,Squamish Airport,49.7817001343,-123.1620025635,Squamish,YSE,British Columbia
CYSF,Stony Rapids Airport,59.2503013611,-105.841003418,Stony Rapids,YSF,Saskatchewan
CYSG,St Georges Airport,46.0964012146,-70.7146987915,St Georges,,Quebec
CYSJ,Saint John Airport,45.3161010742,-65.890296936,Saint John,YSJ,New Brunswick
CYSK,Sanikiluaq Airport,56.5377998352,-79.2466964722,Sanikiluaq,YSK,Nunavut
CYSL,St Leonard Airport,47.1575012207,-67.8347015381,St Leonard,YSL,New Brunswick
CYSM,Fort Smith Airport,60.0203018188,-111.9619979858,Fort Smith,YSM,Northwest Territories
CYSP,Marathon Airport,48.7552986145,-86.3443984985,Marathon,YSP,Ontario
CYSQ,Atlin Airport,59.5766983032,-133.6690063477,Atlin,,British Columbia
CYST,St. Theresa Point Airport,53.8456001282,-94.8518981934,St. Theresa Point,YST,Manitoba
CYSW,Sparwood Elk Valley Airport,49.8333015442,-114.8830032349,Sparwood,,British Columbia
CYSY,Sachs Harbour (David Nasogaluak Jr. Saaryuaq) Airport,71.9938964844,-125.242996216,Sachs Harbour,YSY,Northwest Territories
CYSZ,Ste Anne Des Monts Airport,49.120300293,-66.5291976929,Ste-Anne-Des-Monts,,Quebec
CYTA,Pembroke Airport,45.8643989563,-77.251701355,Pembroke,YTA,Ontario
CYTE,Cape Dorset Airport,64.2300033569,-76.5267028809,Cape Dorset,YTE,Nunavut
CYTF,Alma Airport,48.5088996887,-71.6418991089,Alma,YTF,Quebec
CYTH,Thompson Airport,55.8011016846,-97.8641967773,Thompson,YTH,Manitoba
CYTL,Big Trout Lake Airport,53.8177986145,-89.8968963623,Big Trout Lake,YTL,Ontario
CYTN,Trenton Airport,45.6119003296,-62.6211013794,Trenton,,Nova Scotia
CYTQ,Tasiujaq Airport,58.6678009033,-69.9558029175,Tasiujaq,YTQ,Quebec
CYTR,CFB Trenton,44.1189002991,-77.5280990601,Trenton,YTR,Ontario
CYTS,Timmins/Victor M. Power,48.5696983337,-81.376701355,Timmins,YTS,Ontario
CYTZ,Billy Bishop Toronto City Centre Airport,43.6274986267,-79.3962020874,Toronto,YTZ,Ontario
CYUB,Tuktoyaktuk Airport,69.4332962036,-133.0260009766,Tuktoyaktuk,YUB,Northwest Territories
CYUL,Montreal / Pierre Elliott Trudeau International Airport,45.4706001282,-73.7407989502,Montreal,YUL,Quebec
CYUT,Repulse Bay Airport,66.5214004517,-86.2247009277,Repulse Bay,YUT,Nunavut
CYUX,Hall Beach Airport,68.7761001587,-81.243598938,Hall Beach,YUX,Nunavut
CYUY,Rouyn Noranda Airport,48.2061004639,-78.8356018066,Rouyn-Noranda,YUY,Quebec
CYVB,Bonaventure Airport,48.0710983276,-65.4602966309,Bonaventure,YVB,Quebec
CYVC,La Ronge Airport,55.1514015198,-105.2620010376,La Ronge,YVC,Saskatchewan
CYVD,Virden/R.J. (Bob) Andrew Field Regional Aerodrome,49.8782997131,-100.917999268,Virden,,Manitoba
CYVG,Vermilion Airport,53.3558006287,-110.8239974976,Vermilion,YVG,Alberta
CYVM,Qikiqtarjuaq Airport,67.5457992554,-64.0314025879,Qikiqtarjuaq,YVM,Nunavut
CYVO,Val-d'Or Airport,48.0532989502,-77.7827987671,Val-d'Or,YVO,Quebec
CYVP,Kuujjuaq Airport,58.0960998535,-68.426902771,Kuujjuaq,YVP,Quebec
CYVQ,Norman Wells Airport,65.2816009521,-126.797996521,Norman Wells,YVQ,Northwest Territories
CYVT,Buffalo Narrows Airport,55.8418998718,-108.417999268,Buffalo Narrows,YVT,Saskatchewan
CYVV,Wiarton Airport,44.7458000183,-81.1072006226,Wiarton,YVV,Ontario
CYVZ,Deer Lake Airport,52.6557998657,-94.0614013672,Deer Lake,YVZ,Ontario
CYWA,Petawawa Airport,45.9522018433,-77.3191986084,Petawawa,YWA,Ontario
CYWE,Wekweeti Airport,64.1908035278,-114.077003479,Wekweeti,YFJ,Northwest-Territories
CYWG,Winnipeg / James Armstrong Richardson International Airport,49.9099998474,-97.2398986816,Winnipeg,YWG,Manitoba
CYWJ,Deline Airport,65.2110977173,-123.4359970093,Deline,YWJ,Northwest-Territories
CYWK,Wabush Airport,52.9219017029,-66.864402771,Wabush,YWK,Newfoundland-and-Labrador
CYWL,Williams Lake Airport,52.1831016541,-122.0540008545,Williams Lake,YWL,British-Columbia
CYWM,Athabasca Airport,54.7430992126,-113.2050018311,Athabasca,,Alberta
CYWP,Webequie Airport,52.9593933975,-87.3748683929,Webequie,YWP,Ontario
CYWV,Wainwright Airport,52.7957992554,-110.8570022583,Wainwright,,Alberta
CYWY,Wrigley Airport,63.209400177,-123.43699646,Wrigley,YWY,Northwest-Territories
CYXC,Cranbrook Airport,49.6108016968,-115.7819976807,Cranbrook,YXC,British-Columbia
CYXE,Saskatoon John G. Diefenbaker International Airport,52.1707992554,-106.6999969482,Saskatoon,YXE,Saskatchewan
CYXH,Medicine Hat Airport,50.018901825,-110.7210006714,Medicine Hat,YXH,Alberta
CYXJ,Fort St John Airport,56.2380981445,-120.7399978638,Fort St.John,YXJ,British-Columbia
CYXK,Rimouski Airport,48.478099823,-68.4969024658,Rimouski,YXK,Quebec
CYXL,Sioux Lookout Airport,50.113899231,-91.9052963257,Sioux Lookout,YXL,Ontario
CYXN,Whale Cove Airport,62.2400016785,-92.5980987549,Whale Cove,YXN,Nunavut
CYXP,Pangnirtung Airport,66.1449966431,-65.7136001587,Pangnirtung,YXP,Nunavut
CYXQ,Beaver Creek Airport,62.4103012085,-140.8670043945,Beaver Creek,YXQ,Yukon
CYXR,Earlton (Timiskaming Regional) Airport,47.6974006546,-79.8473453522,Earlton,YXR,Ontario
CYXS,Prince George Airport,53.8894004822,-122.6790008545,Prince George,YXS,British-Columbia
CYXT,Terrace Airport,54.46849823,-128.5760040283,Terrace,YXT,British-Columbia
CYXU,London Airport,43.0355987549,-81.1539001465,London,YXU,Ontario
CYXX,Abbotsford Airport,49.0252990723,-122.361000061,Abbotsford,YXX,British-Columbia
CYXY,Whitehorse / Erik Nielsen International Airport,60.7095985413,-135.067001343,Whitehorse,YXY,Yukon
CYXZ,Wawa Airport,47.9667015076,-84.7866973877,Wawa,YXZ,Ontario
CYYB,North Bay Airport,46.3636016846,-79.4227981567,North Bay,YYB,Ontario
CYYC,Calgary International Airport,51.113899231,-114.0199966431,Calgary,YYC,Alberta
CYYD,Smithers Airport,54.8246994019,-127.1829986572,Smithers,YYD,British-Columbia
CYYE,Fort Nelson Airport,58.8363990784,-122.5970001221,Fort Nelson,YYE,British-Columbia
CYYG,Charlottetown Airport,46.2900009155,-63.1211013794,Charlottetown,YYG,Newfoundland-and-Labrador
CYYH,Taloyoak Airport,69.5466995239,-93.5766983032,Taloyoak,YYH,Nunavut
CYYJ,Victoria International Airport,48.646900177,-123.4260025024,Victoria,YYJ,British-Columbia
CYYL,Lynn Lake Airport,56.863899231,-101.0759963989,Lynn Lake,YYL,Manitoba
CYYM,Cowley Airport,49.6363983154,-114.09400177,Cowley,YYM,Alberta
CYYN,Swift Current Airport,50.2919006348,-107.691001892,Swift Current,YYN,Saskatchewan
CYYO,Wynyard / W.B. Needham Field,51.8098883726,-104.169788361,Wynyard,,Saskatchewan
CYYQ,Churchill Airport,58.739200592,-94.0650024414,Churchill,YYQ,Manitoba
CYYR,Goose Bay Airport,53.3191986084,-60.4258003235,Goose Bay,YYR,Newfoundland-and-Labrador
CYYT,St. John's International Airport,47.618598938,-52.7518997192,St. John's,YYT,Newfoundland-and-Labrador
CYYU,Kapuskasing Airport,49.413898468,-82.4674987793,Kapuskasing,YYU,Ontario
CYYW,Armstrong Airport,50.2902984619,-88.9096984863,Armstrong,YYW,Ontario
CYYY,Mont Joli Airport,48.6086006165,-68.2080993652,Mont-Joli,YYY,Quebec
CYYZ,Lester B. Pearson International Airport,43.6772003174,-79.6305999756,Toronto,YYZ,Ontario
CYZE,Gore Bay Manitoulin Airport,45.8852996826,-82.5678024292,Gore Bay,YZE,Ontario
CYZF,Yellowknife Airport,62.4627990723,-114.4400024414,Yellowknife,YZF,Northwest-Territories
CYZG,Salluit Airport,62.1794013977,-75.6671981812,Salluit,YZG,Quebec
CYZH,Slave Lake Airport,55.2930984497,-114.777000427,Slave Lake,YZH,Alberta
CYZP,Sandspit Airport,53.2542991638,-131.813995361,Sandspit,YZP,British-Columbia
CYZR,Chris Hadfield Airport,42.9994010925,-82.3088989258,Sarnia,YZR,Ontario
CYZS,Coral Harbour Airport,64.1932983398,-83.3593978882,Coral Harbour,YZS,Nunavut
CYZT,Port Hardy Airport,50.6805992126,-127.3669967651,Port Hardy,YZT,British-Columbia
CYZU,Whitecourt Airport,54.143901825,-115.7870025635,Whitecourt,YZU,Alberta
CYZV,Sept-Iles Airport,50.2233009338,-66.2656021118,Sept-Iles,YZV,Quebec
CYZW,Teslin Airport,60.1727981567,-132.7429962158,Teslin,YZW,Yukon
CYZX,CFB Greenwood,44.9844017029,-64.9169006348,Greenwood,YZX,Nova-Scotia
CYZY,Mackenzie Airport,55.3044013977,-123.132003784,Mackenzie,YZY,British-Columbia
CZAM,Salmon Arm Airport,50.682800293,-119.2289962769,Salmon Arm,YSN,British-Columbia
CZBD,Ilford Airport,56.0614013672,-95.613899231,Ilford,ILF,Manitoba
CZBF,Bathurst Airport,47.629699707,-65.738899231,Bathurst,ZBF,New-Brunswick
CZBM,Bromont (Roland Desourdy) Airport,45.2907981873,-72.7414016724,Bromont,ZBM,Quebec
CZEM,Eastmain River Airport,52.226398468,-78.5224990845,Eastmain River,ZEM,Quebec
CZFA,Faro Airport,62.2075004578,-133.3760070801,Faro,ZFA,Yukon
CZFD,Fond-Du-Lac Airport,59.334400177,-107.1819992065,Fond-Du-Lac,ZFD,Saskatchewan
CZFG,Pukatawagan Airport,55.7491989136,-101.2659988403,Pukatawagan,ZFG,Manitoba
CZFM,Fort Mcpherson Airport,67.4075012207,-134.8609924316,Fort Mcpherson,ZFM,Northwest-Territories
CZFN,Tulita Airport,64.9096984863,-125.5729980469,Tulita,ZFN,Northwest-Territories
CZGF,Grand Forks Airport,49.0155982971,-118.4309997559,Grand Forks,ZGF,British-Columbia
CZGI,Gods River Airport,54.8396987915,-94.0785980225,Gods River,ZGI,Manitoba
CZGR,Little Grand Rapids Airport,52.0456008911,-95.4657974243,Little Grand Rapids,ZGR,Manitoba
CZHP,High Prairie Airport,55.3936004639,-116.4749984741,High Prairie,ZHP,Alberta
CZJG,Jenpeg Airport,54.518901825,-98.0460968018,Jenpeg,ZJG,Manitoba
CZJN,Swan River Airport,52.1206016541,-101.236000061,Swan River,ZJN,Manitoba
CZKE,Kashechewan Airport,52.2825012207,-81.6778030396,Kashechewan,ZKE,Ontario
CZLQ,Thicket Portage Airport,55.318901062,-97.7078018188,Thicket Portage,YTD,Manitoba
CZMD,Muskrat Dam Airport,53.4413986206,-91.762802124,Muskrat Dam,MSA,Ontario
CZML,South Cariboo Region / 108 Mile Airport,51.7360992432,-121.333000183,108 Mile,ZMH,British-Columbia
CZMN,Pikwitonei Airport,55.5889015198,-97.1641998291,Pikwitonei,PIW,Manitoba
CZMT,Masset Airport,54.0275001526,-132.125,Masset,ZMT,British-Columbia
CZNG,Poplar River Airport,53,-97.2667007446,Poplar River,ZNG,Manitoba
CZNL,Nelson Airport,49.4942016602,-117.3010025024,Nelson,,British-Columbia
CZPB,Sachigo Lake Airport,53.8911018372,-92.1964035034,Sachigo Lake,ZPB,Ontario
CZPC,Pincher Creek Airport,49.5205993652,-113.9970016479,Pincher Creek,WPC,Alberta
CZPO,Pinehouse Lake Airport,55.5280990601,-106.582000732,Pinehouse Lake,ZPO,Saskatchewan
CZRJ,Round Lake (Weagamow Lake) Airport,52.9435997009,-91.3127975464,Round Lake,ZRJ,Ontario
CZSJ,Sandy Lake Airport,53.064201355,-93.3443984985,Sandy Lake,ZSJ,Ontario
CZSN,South Indian Lake Airport,56.7928009033,-98.9072036743,South Indian Lake,ZSN,Manitoba
CZST,Stewart Airport,55.935410448,-129.982434511,Stewart,ZST,British-Columbia
CZTA,Bloodvein River Airport,51.7832984924,-96.6999969482,Bloodvein River,YDV,Manitoba
CZTM,Shamattawa Airport,55.8656005859,-92.0813980103,Shamattawa,ZTM,Manitoba
CZUC,Ignace Municipal Airport,49.4296989441,-91.7177963257,Ignace,ZUC,Ontario
CZUM,Churchill Falls Airport,53.5619010925,-64.1063995361,Churchill Falls,ZUM,Newfoundland-and-Labrador
CZWH,Lac Brochet Airport,58.6175003052,-101.46900177,Lac Brochet,ZWH,Manitoba
CZWL,Wollaston Lake Airport,58.1068992615,-103.1719970703,Wollaston Lake,ZWL,Saskatchewan
